{
"type": "FeatureCollection",
"name": "Deportivo",
"crs": { "type": "name", "properties": { "name": "urn:ogc:def:crs:EPSG::32718" } },
"features": [
{ "type": "Feature", "properties": { "id": null, "Nombre": "Estadio Universidad de Concepción" }, "geometry": { "type": "MultiPolygon", "coordinates": [ [ [ [ 675374.479700752999634, 5922176.2823656052351 ], [ 675421.658089681644924, 5922236.335514056496322 ], [ 675434.900104172178544, 5922252.586791174486279 ], [ 675445.746214027050883, 5922256.95345198828727 ], [ 675462.666851779911667, 5922257.829025652259588 ], [ 675472.459135690587573, 5922255.791378673166037 ], [ 675478.796737195225433, 5922250.152883331291378 ], [ 675486.024401417700574, 5922242.966062736697495 ], [ 675490.562140255235136, 5922232.275309359654784 ], [ 675491.810020021977834, 5922224.989157114177942 ], [ 675491.439080282347277, 5922214.983492633327842 ], [ 675489.999089364195243, 5922209.103665227070451 ], [ 675486.060198898660019, 5922201.962091002613306 ], [ 675457.377985631348565, 5922165.55180836841464 ], [ 675429.711646263953298, 5922129.768237549811602 ], [ 675423.647189598181285, 5922124.478799818083644 ], [ 675417.635799166280776, 5922121.766504937782884 ], [ 675411.13328702619765, 5922120.353435661643744 ], [ 675401.308468960225582, 5922121.071344621479511 ], [ 675394.880233222036622, 5922123.266264138743281 ], [ 675374.751162133994512, 5922139.150035717524588 ], [ 675370.499616393935867, 5922146.456620341166854 ], [ 675369.385825845180079, 5922155.245573834516108 ], [ 675369.280824129236862, 5922162.724649151787162 ], [ 675370.147483513806947, 5922167.089833022095263 ], [ 675374.479700752999634, 5922176.2823656052351 ] ] ] ] } },
{ "type": "Feature", "properties": { "id": null, "Nombre": "Futbolito UDC" }, "geometry": { "type": "MultiPolygon", "coordinates": [ [ [ [ 675498.670414875727147, 5922154.929872658103704 ], [ 675515.665210318518803, 5922142.010421795770526 ], [ 675490.434641613508575, 5922109.98501627612859 ], [ 675473.532502507907338, 5922123.13411289267242 ], [ 675498.670414875727147, 5922154.929872658103704 ] ] ] ] } },
{ "type": "Feature", "properties": { "id": null, "Nombre": "Futbolito UDC" }, "geometry": { "type": "MultiPolygon", "coordinates": [ [ [ [ 675521.469426723779179, 5922182.059788523241878 ], [ 675537.188728606677614, 5922169.925956977531314 ], [ 675517.287988976575434, 5922144.518891854211688 ], [ 675501.403562428429723, 5922156.495830703526735 ], [ 675521.469426723779179, 5922182.059788523241878 ] ] ] ] } },
{ "type": "Feature", "properties": { "id": null, "Nombre": "Parque de Calistenia UdeC" }, "geometry": { "type": "MultiPolygon", "coordinates": [ [ [ [ 675276.537087673204951, 5921983.181699731387198 ], [ 675268.063888766686432, 5922001.680170750245452 ], [ 675269.877787460340187, 5922002.616688892245293 ], [ 675265.946706278249621, 5922011.734839988872409 ], [ 675279.201688548666425, 5922017.624553746543825 ], [ 675278.044663831824437, 5922020.739576308056712 ], [ 675301.07285621704068, 5922031.538453667424619 ], [ 675299.705149653833359, 5922034.903282517567277 ], [ 675337.998794528073631, 5922052.81909066811204 ], [ 675344.842230672948062, 5922038.339338750578463 ], [ 675296.370148606132716, 5922016.244579888880253 ], [ 675291.536705152597278, 5922014.14266893453896 ], [ 675298.211901507573202, 5921999.559488595463336 ], [ 675295.749382955837063, 5921991.507710638456047 ], [ 675276.537087673204951, 5921983.181699731387198 ] ] ] ] } },
{ "type": "Feature", "properties": { "id": null, "Nombre": "Muticancha UdeC" }, "geometry": { "type": "MultiPolygon", "coordinates": [ [ [ [ 675177.917849571676925, 5922121.530994957312942 ], [ 675193.964662977145053, 5922129.087815091945231 ], [ 675208.812021288787946, 5922097.644411786459386 ], [ 675192.696325430879369, 5922090.174339924938977 ], [ 675177.917849571676925, 5922121.530994957312942 ] ] ] ] } }
]
}
