{
"type": "FeatureCollection",
"name": "Edificios",
"crs": { "type": "name", "properties": { "name": "urn:ogc:def:crs:EPSG::32718" } },
"features": [
{ "type": "Feature", "properties": { "id": 1, "Nombre": null }, "geometry": { "type": "MultiPolygon", "coordinates": [ [ [ [ 674910.462371821049601, 5922331.809357357211411 ], [ 674898.158374462043867, 5922358.126610888168216 ], [ 674898.158374462043867, 5922358.126610888168216 ], [ 674892.455512747750618, 5922371.094173946417868 ], [ 674892.343688828637823, 5922373.505941900424659 ], [ 674893.038151089800522, 5922375.901161608286202 ], [ 674894.361164988134988, 5922377.480322793126106 ], [ 674896.009989622980356, 5922379.213428420014679 ], [ 674899.103539778734557, 5922380.595617034472525 ], [ 674900.55815162230283, 5922380.726391825824976 ], [ 674904.079447263851762, 5922379.369060387834907 ], [ 674905.668949981452897, 5922378.212012201547623 ], [ 674907.896889748517424, 5922376.720595637336373 ], [ 674915.390532302786596, 5922380.261301300488412 ], [ 674933.332992802839726, 5922342.61556139960885 ], [ 674910.462371821049601, 5922331.809357357211411 ] ] ] ] } },
{ "type": "Feature", "properties": { "id": null, "Nombre": "Facultad de Ciencias Jurídicas y Sociales" }, "geometry": { "type": "MultiPolygon", "coordinates": [ [ [ [ 674934.423054667422548, 5922326.112205270677805 ], [ 674932.002130202716216, 5922331.496402480639517 ], [ 674966.762903324794024, 5922347.705715142190456 ], [ 674977.188313213875517, 5922325.652835857123137 ], [ 674942.607803626684472, 5922308.686214726418257 ], [ 674942.264919408480637, 5922309.439939161762595 ], [ 674939.301667423453182, 5922315.198939928784966 ], [ 674936.517764027812518, 5922313.61239404976368 ], [ 674937.662624332937412, 5922310.411068356595933 ], [ 674929.227900415076874, 5922306.968094338662922 ], [ 674927.946046708617359, 5922308.857269833795726 ], [ 674926.506963936728425, 5922308.448493356816471 ], [ 674920.354982679709792, 5922320.944173252210021 ], [ 674922.32744020561222, 5922321.683229732327163 ], [ 674921.33064999349881, 5922323.977375349961221 ], [ 674929.500010282732546, 5922327.837334538809955 ], [ 674931.191505691036582, 5922324.42456410638988 ], [ 674934.423054667422548, 5922326.112205270677805 ] ] ] ] } },
{ "type": "Feature", "properties": { "id": null, "Nombre": "Facultad de Ciencias Químicas" }, "geometry": { "type": "MultiPolygon", "coordinates": [ [ [ [ 674987.350098192691803, 5922322.311195722781122 ], [ 675004.581246125511825, 5922330.075897783041 ], [ 675041.206812261370942, 5922252.451036548241973 ], [ 675024.235680069541559, 5922244.934850348159671 ], [ 675021.367121014860459, 5922250.952340241521597 ], [ 674989.515992632834241, 5922235.90187107026577 ], [ 674989.834273255313747, 5922235.40471672359854 ], [ 674982.44504269270692, 5922231.244686428457499 ], [ 674979.751908289152198, 5922236.894144111312926 ], [ 674976.943938835989684, 5922236.951808158308268 ], [ 674974.135969398776069, 5922237.00947127956897 ], [ 674970.789371546939947, 5922238.197024757042527 ], [ 674968.858240496250801, 5922239.914926306344569 ], [ 674962.611812661984004, 5922236.686700977385044 ], [ 674944.488769621122628, 5922273.754635971039534 ], [ 674951.677246441831812, 5922276.737887047231197 ], [ 674950.672404297161847, 5922278.845749670639634 ], [ 674950.740944520104676, 5922282.183912723325193 ], [ 674950.770930860890076, 5922283.64435946661979 ], [ 674951.438093246193603, 5922285.509170273318887 ], [ 674953.57200945308432, 5922287.343865299597383 ], [ 674955.265434704022482, 5922288.143988016992807 ], [ 674953.469568775151856, 5922292.564053183421493 ], [ 674993.123531184275635, 5922310.200036770664155 ], [ 674987.350098192691803, 5922322.311195722781122 ] ], [ [ 674998.924180372385308, 5922298.031785325147212 ], [ 674973.995422371546738, 5922286.830515073612332 ], [ 674974.68343816138804, 5922284.883399957790971 ], [ 674960.713453033124097, 5922278.163191135972738 ], [ 674959.213435209123418, 5922276.019384131766856 ], [ 674960.841953558614478, 5922272.603223323822021 ], [ 674958.589448778657243, 5922269.266754625365138 ], [ 674960.930779322632588, 5922265.111091753467917 ], [ 674965.326683252118528, 5922266.470563301816583 ], [ 674969.732053485698998, 5922256.473573544993997 ], [ 674965.57375780842267, 5922254.867604644969106 ], [ 674969.756396082928404, 5922245.841690249741077 ], [ 674973.011031662928872, 5922246.760421318933368 ], [ 674972.602497479296289, 5922248.302920183166862 ], [ 674977.052223593462259, 5922250.622287655249238 ], [ 674977.905279936036095, 5922249.289818099699914 ], [ 674989.471879144897684, 5922255.18872426636517 ], [ 674991.173489792621695, 5922252.304714921861887 ], [ 675015.169916954706423, 5922263.95246054045856 ], [ 674998.924180372385308, 5922298.031785325147212 ] ] ] ] } },
{ "type": "Feature", "properties": { "id": null, "Nombre": "Facultad de Farmacia" }, "geometry": { "type": "MultiPolygon", "coordinates": [ [ [ [ 674945.032696262700483, 5922410.668693652376533 ], [ 674966.239505434408784, 5922420.496973588131368 ], [ 674968.084227848681621, 5922415.617726484313607 ], [ 674966.505108237382956, 5922414.488223000429571 ], [ 674973.963475238298997, 5922398.842714508064091 ], [ 674975.931410307995975, 5922399.964230298995972 ], [ 674980.382565170992166, 5922389.415497525595129 ], [ 674979.204190090065822, 5922388.858733080327511 ], [ 674985.170847761561163, 5922376.342350974678993 ], [ 674986.928470617858693, 5922376.693564455956221 ], [ 674989.336518180673011, 5922370.834498774260283 ], [ 674975.985605850117281, 5922364.718095711432397 ], [ 674966.24207483115606, 5922382.734316414222121 ], [ 674964.290043666027486, 5922382.387090228497982 ], [ 674961.770686620497145, 5922382.826128277927637 ], [ 674960.223370308987796, 5922383.245206978172064 ], [ 674958.493569255340844, 5922384.248994193971157 ], [ 674951.404134289361537, 5922398.918615170754492 ], [ 674945.520213167415932, 5922396.521914109587669 ], [ 674944.893271377310157, 5922394.404589518904686 ], [ 674943.334029744146392, 5922394.242947783321142 ], [ 674942.36596176517196, 5922394.456477008759975 ], [ 674934.526040891418234, 5922391.518965330906212 ], [ 674932.288514839950949, 5922396.212600266560912 ], [ 674928.765319439698942, 5922395.123003458604217 ], [ 674925.793866597348824, 5922401.961902279406786 ], [ 674945.032696262700483, 5922410.668693652376533 ] ] ] ] } },
{ "type": "Feature", "properties": { "id": null, "Nombre": "Facultad de Ciencias Naturales y Oceanográficas" }, "geometry": { "type": "MultiPolygon", "coordinates": [ [ [ [ 675044.891686080023646, 5922436.18623975943774 ], [ 675041.326617326238193, 5922435.08374359831214 ], [ 675040.022526833112352, 5922437.294031045399606 ], [ 675032.197237020358443, 5922434.095543632283807 ], [ 675030.583501897752285, 5922437.655881285667419 ], [ 675025.648819226771593, 5922435.573742475360632 ], [ 675021.616195518523455, 5922444.558532045222819 ], [ 675047.170671679079533, 5922456.798709923401475 ], [ 675051.523262393311597, 5922446.967512294650078 ], [ 675047.097864822717384, 5922445.042882184498012 ], [ 675056.618506361264735, 5922424.020078428089619 ], [ 675051.518657865817659, 5922422.109312321990728 ], [ 675044.891686080023646, 5922436.18623975943774 ] ] ], [ [ [ 675052.4348454735009, 5922385.509846325963736 ], [ 675053.75753592478577, 5922384.137600105255842 ], [ 675041.700895703746937, 5922378.108273901045322 ], [ 675041.062566076172516, 5922379.914816404692829 ], [ 675035.155983564793132, 5922377.346004465594888 ], [ 675029.998696277150884, 5922389.333418590016663 ], [ 675027.504712862544693, 5922388.487931063398719 ], [ 675024.712516793981194, 5922395.046475490555167 ], [ 675026.999860810465179, 5922396.792925642803311 ], [ 675020.065141944214702, 5922409.937765331938863 ], [ 675018.016656255000271, 5922408.858942817896605 ], [ 675014.379464214900509, 5922418.125009635463357 ], [ 675016.423349045566283, 5922418.979749109596014 ], [ 675011.073170915711671, 5922432.540427739731967 ], [ 675008.372533325804397, 5922432.595894021913409 ], [ 675004.666286772117019, 5922438.500695345923305 ], [ 675017.379731063963845, 5922443.619909161701798 ], [ 675026.454548908630386, 5922425.050745968706906 ], [ 675033.486425783368759, 5922427.596465873531997 ], [ 675032.43020441592671, 5922430.9808618305251 ], [ 675039.926003846339881, 5922434.189589747227728 ], [ 675043.719685863004997, 5922432.542399076744914 ], [ 675047.035640431218781, 5922429.559940322302282 ], [ 675048.303098882781342, 5922425.498663404025137 ], [ 675047.949152538087219, 5922419.228898350149393 ], [ 675051.343358503421769, 5922420.055890392512083 ], [ 675055.223978973459452, 5922411.681520119309425 ], [ 675036.576335929799825, 5922402.649054440669715 ], [ 675041.104498977889307, 5922392.916331831365824 ], [ 675053.15195207472425, 5922398.497501060366631 ], [ 675057.666283372440375, 5922388.092519883066416 ], [ 675052.4348454735009, 5922385.509846325963736 ] ] ] ] } },
{ "type": "Feature", "properties": { "id": null, "Nombre": "Edificio Ingeniería de Sistemas" }, "geometry": { "type": "MultiPolygon", "coordinates": [ [ [ [ 675051.443380993790925, 5922172.459723120555282 ], [ 675058.275633189827204, 5922175.502430195920169 ], [ 675048.352610151050612, 5922195.928229440934956 ], [ 675062.980074288905598, 5922203.117321822792292 ], [ 675085.668144721188582, 5922154.15598323289305 ], [ 675071.428214545361698, 5922147.520730712451041 ], [ 675074.845784737262875, 5922139.960938991047442 ], [ 675068.013553612167016, 5922136.918259048834443 ], [ 675051.443380993790925, 5922172.459723120555282 ] ] ] ] } },
{ "type": "Feature", "properties": { "id": null, "Nombre": "Edificio Tecnológico Químico Gustavo Pizarro Castro" }, "geometry": { "type": "MultiPolygon", "coordinates": [ [ [ [ 674976.996377305709757, 5922201.525177730247378 ], [ 675032.743052945239469, 5922228.100918085314333 ], [ 675040.561152238631621, 5922211.451244619674981 ], [ 674984.57465359964408, 5922184.880538480356336 ], [ 674976.996377305709757, 5922201.525177730247378 ] ] ] ] } },
{ "type": "Feature", "properties": { "id": null, "Nombre": "Facultad de Ingeniería" }, "geometry": { "type": "MultiPolygon", "coordinates": [ [ [ [ 675008.048706481233239, 5922196.35098322853446 ], [ 675040.821716731064953, 5922128.178076514974236 ], [ 675025.955172635964118, 5922121.290921565145254 ], [ 675016.741138824028894, 5922142.163903492502868 ], [ 675015.613329445943236, 5922142.187069742009044 ], [ 675003.35429363604635, 5922167.903423809446394 ], [ 675004.877264797687531, 5922168.808341182768345 ], [ 674994.77768869115971, 5922189.799399481154978 ], [ 675008.048706481233239, 5922196.35098322853446 ] ] ] ] } },
{ "type": "Feature", "properties": { "id": null, "Nombre": "Edificio tecnológico Mecánico" }, "geometry": { "type": "MultiPolygon", "coordinates": [ [ [ [ 675017.476650306372903, 5922116.83522230759263 ], [ 675060.241253827698529, 5922137.434106709435582 ], [ 675093.195831060293131, 5922069.408139697276056 ], [ 675049.100552621413954, 5922048.836942748166621 ], [ 675039.69825540506281, 5922070.772522654384375 ], [ 675048.813861148897558, 5922073.767066293396056 ], [ 675046.293594006681815, 5922080.712794855237007 ], [ 675050.601554085267708, 5922083.010655760765076 ], [ 675054.479967742692679, 5922077.362779201008379 ], [ 675064.171521669952199, 5922082.466692918911576 ], [ 675052.97671361733228, 5922107.886189950630069 ], [ 675026.640098893432878, 5922096.230226580053568 ], [ 675017.476650306372903, 5922116.83522230759263 ] ] ] ] } },
{ "type": "Feature", "properties": { "id": null, "Nombre": "Edificio Ingeniería Metalúrgica" }, "geometry": { "type": "MultiPolygon", "coordinates": [ [ [ [ 675052.106228561140597, 5922040.017970360815525 ], [ 675096.722243610420264, 5922060.799330449663103 ], [ 675114.530755780171603, 5922024.068864926695824 ], [ 675078.056757733924314, 5922006.73672949988395 ], [ 675077.480574666871689, 5922008.154923908412457 ], [ 675072.80869046843145, 5922006.643663180992007 ], [ 675072.77155100449454, 5922004.836256850510836 ], [ 675071.318455422995612, 5922002.857038899324834 ], [ 675068.898176286020316, 5922002.906771255657077 ], [ 675067.506979214609601, 5922003.939895818009973 ], [ 675067.350680530653335, 5922006.153092068620026 ], [ 675068.606212124926969, 5922008.337278740480542 ], [ 675065.326032443088479, 5922015.637361913919449 ], [ 675062.893370640580542, 5922015.084623005241156 ], [ 675052.106228561140597, 5922040.017970360815525 ] ] ] ] } },
{ "type": "Feature", "properties": { "id": null, "Nombre": "Facultad de Educación" }, "geometry": { "type": "MultiPolygon", "coordinates": [ [ [ [ 675138.031534677837044, 5922044.786748727783561 ], [ 675169.563296265434474, 5921976.83874062821269 ], [ 675153.820198004133999, 5921969.766856595873833 ], [ 675149.805570351192728, 5921979.217084385454655 ], [ 675109.061461857752874, 5921960.333145964890718 ], [ 675103.839787817443721, 5921971.287255043163896 ], [ 675142.104593310737982, 5921989.203511549159884 ], [ 675142.459564813412726, 5921990.944204302504659 ], [ 675145.008729392662644, 5921990.73289317637682 ], [ 675124.000223734998144, 5922038.369020423851907 ], [ 675138.031534677837044, 5922044.786748727783561 ] ] ] ] } },
{ "type": "Feature", "properties": { "id": null, "Nombre": "Biblioteca Central Luis David Cruz Ocampo" }, "geometry": { "type": "MultiPolygon", "coordinates": [ [ [ [ 675184.888669628766365, 5921956.827271319925785 ], [ 675235.646644693333656, 5921980.43803682923317 ], [ 675255.526661227690056, 5921937.69298118725419 ], [ 675205.263761232956313, 5921913.82325079664588 ], [ 675184.888669628766365, 5921956.827271319925785 ] ] ] ] } },
{ "type": "Feature", "properties": { "id": null, "Nombre": "Facultad de Ciencias Económicas y Administrativas" }, "geometry": { "type": "MultiPolygon", "coordinates": [ [ [ [ 675266.780847662943415, 5921913.177525399252772 ], [ 675283.333863327745348, 5921920.324070308357477 ], [ 675310.381093063973822, 5921864.012086244300008 ], [ 675288.560630917432718, 5921854.252523485571146 ], [ 675278.532264286186546, 5921875.985568709671497 ], [ 675258.739729300374165, 5921867.293819399550557 ], [ 675253.420984135009348, 5921879.609111594967544 ], [ 675277.487613554461859, 5921890.210286364890635 ], [ 675266.780847662943415, 5921913.177525399252772 ] ] ] ] } },
{ "type": "Feature", "properties": { "id": null, "Nombre": "Facultad de Ciencias Veterinarias" }, "geometry": { "type": "MultiPolygon", "coordinates": [ [ [ [ 675319.425823368364945, 5921835.07713468093425 ], [ 675323.148458171170205, 5921836.728897524997592 ], [ 675321.798686647205614, 5921839.673299758695066 ], [ 675329.684403899591416, 5921843.291829753667116 ], [ 675331.248838555300608, 5921840.234983923844993 ], [ 675334.097262137220241, 5921841.580664821900427 ], [ 675349.351757452823222, 5921807.887596992775798 ], [ 675347.822440020507202, 5921807.378959642723203 ], [ 675348.010435351287015, 5921805.970793994143605 ], [ 675347.972654610639438, 5921804.135184461250901 ], [ 675346.854886871529743, 5921802.537849172018468 ], [ 675345.310014003189281, 5921801.273372841998935 ], [ 675343.884696477325633, 5921800.546549352817237 ], [ 675342.14293907803949, 5921800.258329326286912 ], [ 675340.728733550058678, 5921800.071390226483345 ], [ 675339.325639545102604, 5921800.424335727468133 ], [ 675338.024321767967194, 5921800.451118228957057 ], [ 675336.973224166897126, 5921802.093091506510973 ], [ 675334.899470580974594, 5921801.487634550780058 ], [ 675319.425823368364945, 5921835.07713468093425 ] ] ] ] } },
{ "type": "Feature", "properties": { "id": null, "Nombre": "Clínica Veterinaria" }, "geometry": { "type": "MultiPolygon", "coordinates": [ [ [ [ 675323.074753414141014, 5921822.758074808865786 ], [ 675328.050490085035563, 5921811.121306201443076 ], [ 675330.469203192740679, 5921812.027428458444774 ], [ 675336.821486916276626, 5921797.087721748277545 ], [ 675331.583204244961962, 5921791.882075490429997 ], [ 675303.212723588687368, 5921820.768975662998855 ], [ 675306.160926023032516, 5921829.008453909307718 ], [ 675309.581166462157853, 5921833.180373358540237 ], [ 675311.946588187012821, 5921831.102773021906614 ], [ 675313.641534094582312, 5921832.451253140345216 ], [ 675323.074753414141014, 5921822.758074808865786 ] ] ] ] } },
{ "type": "Feature", "properties": { "id": null, "Nombre": "Edificio de Aulas N°1" }, "geometry": { "type": "MultiPolygon", "coordinates": [ [ [ [ 675355.74478672677651, 5921790.535892177373171 ], [ 675379.258028061012737, 5921801.116311948746443 ], [ 675386.936416654847562, 5921783.895032841712236 ], [ 675363.294871653546579, 5921773.583911356516182 ], [ 675355.74478672677651, 5921790.535892177373171 ] ] ] ] } },
{ "type": "Feature", "properties": { "id": null, "Nombre": "Estudio TVU" }, "geometry": { "type": "MultiPolygon", "coordinates": [ [ [ [ 675378.815984419547021, 5921771.913405871018767 ], [ 675388.877957522287033, 5921776.842210160568357 ], [ 675405.253365857177414, 5921742.85582510381937 ], [ 675394.832196374307387, 5921737.757356287911534 ], [ 675388.026728823431768, 5921752.773947093635798 ], [ 675383.171722974046133, 5921750.217380097135901 ], [ 675380.26954945945181, 5921756.121462707407773 ], [ 675384.943122701137327, 5921758.504667170345783 ], [ 675378.815984419547021, 5921771.913405871018767 ] ] ] ] } },
{ "type": "Feature", "properties": { "id": null, "Nombre": "Facultad de Ciencias Forestales" }, "geometry": { "type": "MultiPolygon", "coordinates": [ [ [ [ 675430.504346084431745, 5921706.657669516280293 ], [ 675455.388042571721599, 5921653.249415067955852 ], [ 675453.11351142404601, 5921652.016562476754189 ], [ 675455.564313349896111, 5921646.207448119297624 ], [ 675487.997435775352642, 5921660.895781144499779 ], [ 675492.931934041087516, 5921650.876464990898967 ], [ 675450.122644577757455, 5921631.603019292466342 ], [ 675445.188109893002547, 5921641.622285978868604 ], [ 675447.790392181603238, 5921643.168313002213836 ], [ 675445.031588593381457, 5921649.623614576645195 ], [ 675442.114721487741917, 5921648.403988366946578 ], [ 675418.238666212535463, 5921702.062744661234319 ], [ 675430.504346084431745, 5921706.657669516280293 ] ] ] ] } },
{ "type": "Feature", "properties": { "id": null, "Nombre": "Edificio de Ingeniería Civil e Ingeniería Civil Aeroespacial" }, "geometry": { "type": "MultiPolygon", "coordinates": [ [ [ [ 675461.688228893093765, 5921620.408083636313677 ], [ 675484.554430140415207, 5921631.675016859546304 ], [ 675493.186095367651433, 5921615.768379462882876 ], [ 675495.812325057806447, 5921617.357586521655321 ], [ 675510.792580581502989, 5921600.615892264991999 ], [ 675507.911343391868286, 5921598.092915007844567 ], [ 675506.516652793157846, 5921599.060680510476232 ], [ 675498.368465544073842, 5921592.65532630123198 ], [ 675503.519392285845242, 5921590.905905174091458 ], [ 675503.135068527190015, 5921595.13946321606636 ], [ 675529.27524520480074, 5921593.661858448758721 ], [ 675529.110852082609199, 5921585.683481967076659 ], [ 675534.526451789308339, 5921585.337134963832796 ], [ 675531.067496605566703, 5921577.661408893764019 ], [ 675491.061459926655516, 5921581.302733587101102 ], [ 675491.84098372515291, 5921584.808037498965859 ], [ 675485.0210257882718, 5921585.652801834046841 ], [ 675483.203331055003218, 5921588.976851906627417 ], [ 675477.046879822853953, 5921587.695123476907611 ], [ 675461.688228893093765, 5921620.408083636313677 ] ] ] ] } },
{ "type": "Feature", "properties": { "id": null, "Nombre": "Departamento de Oceanografía" }, "geometry": { "type": "MultiPolygon", "coordinates": [ [ [ [ 675347.458867632318288, 5922422.646533036604524 ], [ 675377.589914923068136, 5922436.881353627890348 ], [ 675382.62909596087411, 5922426.81995058991015 ], [ 675378.980162237887271, 5922424.772923362441361 ], [ 675380.230720792897046, 5922421.808853466063738 ], [ 675385.692366108996794, 5922424.308291617780924 ], [ 675394.781406674766913, 5922411.878171415999532 ], [ 675388.757609532447532, 5922405.962266521528363 ], [ 675388.677004820434377, 5922402.046158954501152 ], [ 675386.181926226243377, 5922400.301872055977583 ], [ 675383.269107230007648, 5922402.157467305660248 ], [ 675378.312536750570871, 5922400.300600660964847 ], [ 675369.056252477923408, 5922412.570887267589569 ], [ 675371.417678526253439, 5922415.787096476182342 ], [ 675368.879617009777576, 5922419.920344077050686 ], [ 675355.959614309249446, 5922413.493374176323414 ], [ 675347.458867632318288, 5922422.646533036604524 ] ] ] ] } },
{ "type": "Feature", "properties": { "id": null, "Nombre": "Departamento de Astronomía, Facultad de Ciencias Físicas y Matemáticas" }, "geometry": { "type": "MultiPolygon", "coordinates": [ [ [ [ 675173.154639609972946, 5922370.520695002749562 ], [ 675191.2881792554399, 5922378.666381042450666 ], [ 675198.662541751633398, 5922362.840743928216398 ], [ 675180.012427521753125, 5922354.535341296344995 ], [ 675173.154639609972946, 5922370.520695002749562 ] ] ] ] } },
{ "type": "Feature", "properties": { "id": null, "Nombre": "Facultad de Ciencias Físicas y Matemáticas" }, "geometry": { "type": "MultiPolygon", "coordinates": [ [ [ [ 675199.962174299289472, 5922382.151611179113388 ], [ 675270.763889897614717, 5922417.236597371287644 ], [ 675276.722480121767148, 5922404.520780613645911 ], [ 675275.842541855061427, 5922402.06152163259685 ], [ 675261.169489837251604, 5922394.311917249113321 ], [ 675258.733420533593744, 5922396.839378321543336 ], [ 675232.327085992554203, 5922383.137666890397668 ], [ 675239.106215482694097, 5922369.992163655348122 ], [ 675238.459003859432414, 5922368.766799680888653 ], [ 675241.816730785067193, 5922360.646367544308305 ], [ 675245.14969514706172, 5922361.403603448532522 ], [ 675253.078906925977208, 5922343.692672580480576 ], [ 675242.580656349891797, 5922337.302346779033542 ], [ 675226.007062204298563, 5922368.197088055312634 ], [ 675224.137573782354593, 5922368.029086402617395 ], [ 675221.735449679545127, 5922372.207396641373634 ], [ 675221.363385028089397, 5922374.279505204409361 ], [ 675221.444010374951176, 5922378.200318121351302 ], [ 675205.954784280154854, 5922371.08676771633327 ], [ 675199.962174299289472, 5922382.151611179113388 ] ] ] ] } },
{ "type": "Feature", "properties": { "id": null, "Nombre": "Departamento de Ciencias de la Tierra" }, "geometry": { "type": "MultiPolygon", "coordinates": [ [ [ [ 675241.709326102398336, 5922222.042643307708204 ], [ 675251.510864959913306, 5922220.013755263760686 ], [ 675249.662212581490166, 5922211.247540972195566 ], [ 675260.460907762404531, 5922209.032017074525356 ], [ 675257.931529751629569, 5922199.615347601473331 ], [ 675250.787995936349034, 5922201.091218365356326 ], [ 675248.425394551130012, 5922191.671125487424433 ], [ 675235.305683718645014, 5922194.598835142329335 ], [ 675236.398472273373045, 5922199.061527565121651 ], [ 675237.062113541178405, 5922198.881761499680579 ], [ 675238.536242100060917, 5922205.662257486023009 ], [ 675238.03936452337075, 5922205.838594019412994 ], [ 675238.961976313497871, 5922210.138674537651241 ], [ 675239.962562024127692, 5922210.118095830082893 ], [ 675241.440109420800582, 5922217.06464787106961 ], [ 675240.630192702752538, 5922218.244129220023751 ], [ 675241.709326102398336, 5922222.042643307708204 ] ] ] ] } },
{ "type": "Feature", "properties": { "id": null, "Nombre": "Edificio EULA 2" }, "geometry": { "type": "MultiPolygon", "coordinates": [ [ [ [ 675263.557703327620402, 5922205.479849744588137 ], [ 675299.928753043874167, 5922197.422467980533838 ], [ 675297.797139314352535, 5922183.014121079817414 ], [ 675274.879376773373224, 5922188.13687321357429 ], [ 675274.195242589456029, 5922187.320360582321882 ], [ 675267.541766084497795, 5922188.287811787799001 ], [ 675267.572506504133344, 5922189.782234226353467 ], [ 675260.5991616260726, 5922191.420728711411357 ], [ 675263.557703327620402, 5922205.479849744588137 ] ] ] ] } },
{ "type": "Feature", "properties": { "id": null, "Nombre": "Edificio EULA 1" }, "geometry": { "type": "MultiPolygon", "coordinates": [ [ [ [ 675315.082747760810889, 5922215.547506699338555 ], [ 675326.342157134204172, 5922212.654795862734318 ], [ 675317.282276230398566, 5922169.638639237731695 ], [ 675310.878167408052832, 5922171.648776445537806 ], [ 675310.839535765699111, 5922169.77120304107666 ], [ 675306.295352362445556, 5922170.490822489373386 ], [ 675306.330763777950779, 5922172.2119315341115 ], [ 675303.210496870800853, 5922173.371844725683331 ], [ 675310.906945740222, 5922211.250543853268027 ], [ 675314.357604134362191, 5922210.866482883691788 ], [ 675315.082747760810889, 5922215.547506699338555 ] ] ] ] } },
{ "type": "Feature", "properties": { "id": null, "Nombre": "Edificio EULA 3" }, "geometry": { "type": "MultiPolygon", "coordinates": [ [ [ [ 675264.708652996458113, 5922158.643780711106956 ], [ 675276.598409151192755, 5922163.009652905166149 ], [ 675288.969440448679961, 5922125.425430782139301 ], [ 675283.704090180806816, 5922123.600345865823328 ], [ 675283.350435432163067, 5922120.930596283636987 ], [ 675276.893727346789092, 5922119.278741022571921 ], [ 675264.708652996458113, 5922158.643780711106956 ] ] ] ] } },
{ "type": "Feature", "properties": { "id": null, "Nombre": "Central Térmica" }, "geometry": { "type": "MultiPolygon", "coordinates": [ [ [ [ 675296.379953852272592, 5922091.188958479091525 ], [ 675301.542158980970271, 5922093.267363579943776 ], [ 675304.223651636624709, 5922090.299372771754861 ], [ 675331.351479918463156, 5922102.484767135232687 ], [ 675332.022605003789067, 5922099.558133321814239 ], [ 675348.262784239719622, 5922106.870087125338614 ], [ 675354.73278731002938, 5922092.536917130462825 ], [ 675305.094857062562369, 5922070.437891587615013 ], [ 675296.379953852272592, 5922091.188958479091525 ] ] ] ] } },
{ "type": "Feature", "properties": { "id": null, "Nombre": "Gimnasio C" }, "geometry": { "type": "MultiPolygon", "coordinates": [ [ [ [ 675382.711096630431712, 5922069.40452269371599 ], [ 675406.042726480867714, 5922079.756756462156773 ], [ 675418.666504843859002, 5922051.254923674277961 ], [ 675395.513202157337219, 5922040.12534318305552 ], [ 675382.711096630431712, 5922069.40452269371599 ] ] ] ] } },
{ "type": "Feature", "properties": { "id": null, "Nombre": "Gimnasio D" }, "geometry": { "type": "MultiPolygon", "coordinates": [ [ [ [ 675429.047634107875638, 5922029.819638360291719 ], [ 675442.28485844284296, 5922001.079671920277178 ], [ 675421.582545552868396, 5921991.758978672325611 ], [ 675408.662270004861057, 5922020.801780698820949 ], [ 675429.047634107875638, 5922029.819638360291719 ] ] ] ] } },
{ "type": "Feature", "properties": { "id": null, "Nombre": "Gimnasio E" }, "geometry": { "type": "MultiPolygon", "coordinates": [ [ [ [ 675429.38444352906663, 5922064.766558075323701 ], [ 675421.902974767144769, 5922078.995150588452816 ], [ 675433.906216062605381, 5922084.143259854987264 ], [ 675440.558631315943785, 5922069.697142490185797 ], [ 675437.581224390072748, 5922068.116419512778521 ], [ 675438.931391689693555, 5922065.039133260026574 ], [ 675451.057198352878913, 5922070.419261496514082 ], [ 675463.95106117927935, 5922043.13555751927197 ], [ 675444.898556511616334, 5922034.032724212855101 ], [ 675431.469852240523323, 5922061.453096501529217 ], [ 675434.510667062364519, 5922063.145034054294229 ], [ 675432.912377211498097, 5922066.067789774388075 ], [ 675429.38444352906663, 5922064.766558075323701 ] ] ] ] } },
{ "type": "Feature", "properties": { "id": null, "Nombre": "Departamento de Educación Física" }, "geometry": { "type": "MultiPolygon", "coordinates": [ [ [ [ 675416.173368472373113, 5922058.663562322035432 ], [ 675417.61853959155269, 5922059.463633197359741 ], [ 675412.966102506965399, 5922070.584241086617112 ], [ 675422.579448449192569, 5922074.891086891293526 ], [ 675433.627928135218099, 5922050.598669981583953 ], [ 675436.151488782837987, 5922051.732171268202364 ], [ 675439.813336220919155, 5922044.543993920087814 ], [ 675438.006262561772019, 5922043.51428778283298 ], [ 675449.734908780548722, 5922019.355946037918329 ], [ 675439.741131019894965, 5922014.093452634289861 ], [ 675434.471034964662977, 5922024.865129733458161 ], [ 675432.532802320085466, 5922024.084795739501715 ], [ 675429.85277876839973, 5922029.321595272049308 ], [ 675433.049093893263489, 5922031.10636006295681 ], [ 675433.830294732470065, 5922032.940853268839419 ], [ 675424.020020442549139, 5922052.944062381982803 ], [ 675422.556643514428288, 5922054.084542097523808 ], [ 675419.003999441745691, 5922053.047337625175714 ], [ 675416.173368472373113, 5922058.663562322035432 ] ] ] ] } },
{ "type": "Feature", "properties": { "id": null, "Nombre": "Edificio Enlaces" }, "geometry": { "type": "MultiPolygon", "coordinates": [ [ [ [ 675474.801878156955354, 5922015.538207728415728 ], [ 675485.876568937906995, 5922007.725499774329364 ], [ 675487.232463988708332, 5922008.835263630375266 ], [ 675493.222260758397169, 5922003.781894671730697 ], [ 675477.929704801877961, 5921982.480780068784952 ], [ 675470.028581679449417, 5921987.19426120724529 ], [ 675468.497953543206677, 5921986.846555262804031 ], [ 675462.476928965537809, 5921990.383621542714536 ], [ 675464.831422385177575, 5921993.748198663815856 ], [ 675461.451911742100492, 5921996.093175960704684 ], [ 675474.801878156955354, 5922015.538207728415728 ] ] ] ] } },
{ "type": "Feature", "properties": { "id": null, "Nombre": "Centro de Formación y Recursos Didácticos" }, "geometry": { "type": "MultiPolygon", "coordinates": [ [ [ [ 675441.865574499941431, 5921981.004965303465724 ], [ 675449.307420388213359, 5921981.854085112921894 ], [ 675447.723819086677395, 5921984.392609216272831 ], [ 675457.601978178368881, 5921987.44687513448298 ], [ 675460.87948308349587, 5921981.615775877609849 ], [ 675463.748681971221231, 5921974.28954098559916 ], [ 675465.785796687472612, 5921963.221584764309227 ], [ 675467.45784678007476, 5921946.648171482607722 ], [ 675441.387873352039605, 5921951.695673735812306 ], [ 675441.865574499941431, 5921981.004965303465724 ] ] ] ] } },
{ "type": "Feature", "properties": { "id": null, "Nombre": "Edificio de Aulas Salvador Gálvez" }, "geometry": { "type": "MultiPolygon", "coordinates": [ [ [ [ 675327.647509316564538, 5922020.308235483244061 ], [ 675334.120541232754476, 5922020.303934967145324 ], [ 675339.526491906028241, 5922018.774719705805182 ], [ 675346.936666080495343, 5922013.981608553789556 ], [ 675351.312118897330947, 5922006.415026597678661 ], [ 675353.067594581283629, 5921997.355505235493183 ], [ 675351.7544216865208, 5921990.163825803436339 ], [ 675348.009035383583978, 5921984.31126303691417 ], [ 675342.709444631123915, 5921979.263593210838735 ], [ 675335.10343414102681, 5921976.233544996008277 ], [ 675325.273307934985496, 5921976.208225260488689 ], [ 675318.236665503238328, 5921978.629151951521635 ], [ 675313.974776283605024, 5921982.586267651990056 ], [ 675310.412424481473863, 5921987.211827660910785 ], [ 675307.820242159999907, 5921994.548783700913191 ], [ 675309.415946848806925, 5922005.441389431245625 ], [ 675315.544197202427313, 5922014.419834554195404 ], [ 675319.727417727932334, 5922017.747962264344096 ], [ 675327.647509316564538, 5922020.308235483244061 ] ] ] ] } },
{ "type": "Feature", "properties": { "id": null, "Nombre": "Aula 9" }, "geometry": { "type": "MultiPolygon", "coordinates": [ [ [ [ 675308.777674162876792, 5921921.595772949978709 ], [ 675324.650927588809282, 5921928.905840095132589 ], [ 675333.094224529108033, 5921910.594928574748337 ], [ 675316.653869597590528, 5921903.678398568183184 ], [ 675308.777674162876792, 5921921.595772949978709 ] ] ] ] } },
{ "type": "Feature", "properties": { "id": null, "Nombre": "Facultad de Ciencias Sociales" }, "geometry": { "type": "MultiPolygon", "coordinates": [ [ [ [ 675353.007789157680236, 5921941.380283096805215 ], [ 675381.55427261418663, 5921953.423737468197942 ], [ 675396.018178803496994, 5921921.305512448772788 ], [ 675422.603869634564035, 5921932.903358777053654 ], [ 675428.460137407062575, 5921921.123376850038767 ], [ 675391.293997259810567, 5921905.128220974467695 ], [ 675386.144248089054599, 5921915.679089350625873 ], [ 675391.5639118028339, 5921918.239460872486234 ], [ 675384.538330967305228, 5921932.472522540949285 ], [ 675360.675022145500407, 5921922.761759348213673 ], [ 675353.007789157680236, 5921941.380283096805215 ] ] ] ] } },
{ "type": "Feature", "properties": { "id": null, "Nombre": "Facultad de Arquitectura, Urbanismo y Geografía" }, "geometry": { "type": "MultiPolygon", "coordinates": [ [ [ [ 675356.397729374817573, 5921890.737381869927049 ], [ 675374.666120647452772, 5921899.196362198330462 ], [ 675384.342951741069555, 5921879.075093732215464 ], [ 675411.91412500757724, 5921891.500122933648527 ], [ 675415.231879880419001, 5921883.636219803243876 ], [ 675419.803443591343239, 5921885.967387396842241 ], [ 675414.643990423064679, 5921897.333925515413284 ], [ 675425.178413708577864, 5921901.967620842158794 ], [ 675426.50551350985188, 5921898.8220528466627 ], [ 675431.540673747775145, 5921901.059969088062644 ], [ 675441.799132831860334, 5921879.149546344764531 ], [ 675421.424476178362966, 5921869.401493305340409 ], [ 675415.455789521103725, 5921881.923897199332714 ], [ 675410.679701530141756, 5921879.790320365689695 ], [ 675415.441896812757477, 5921869.152689340524375 ], [ 675393.18644800176844, 5921858.634103582240641 ], [ 675401.486423739348538, 5921841.457160381600261 ], [ 675383.567993146367371, 5921833.889896761626005 ], [ 675356.397729374817573, 5921890.737381869927049 ] ] ] ] } },
{ "type": "Feature", "properties": { "id": null, "Nombre": "Edificio de Aulas N°5" }, "geometry": { "type": "MultiPolygon", "coordinates": [ [ [ [ 675415.183066464727744, 5921845.270592069253325 ], [ 675454.035133239580318, 5921862.380806034430861 ], [ 675459.476921104127541, 5921850.79988207295537 ], [ 675420.151737804757431, 5921833.699460813775659 ], [ 675415.183066464727744, 5921845.270592069253325 ] ] ] ] } },
{ "type": "Feature", "properties": { "id": null, "Nombre": "Edificio de Aulas N°3" }, "geometry": { "type": "MultiPolygon", "coordinates": [ [ [ [ 675460.444211402791552, 5921841.425869726575911 ], [ 675471.212503246380948, 5921818.833472168073058 ], [ 675454.906693676603027, 5921810.897825912572443 ], [ 675444.433060003910214, 5921834.048076779581606 ], [ 675460.444211402791552, 5921841.425869726575911 ] ] ] ] } },
{ "type": "Feature", "properties": { "id": null, "Nombre": "Edificio de Aulas N°4" }, "geometry": { "type": "MultiPolygon", "coordinates": [ [ [ [ 675454.761305343592539, 5921804.779417771846056 ], [ 675481.910038707661442, 5921817.776798472739756 ], [ 675488.115238291909918, 5921805.482853544875979 ], [ 675486.345408030902036, 5921804.302697323262691 ], [ 675493.038237286382355, 5921790.260707906447351 ], [ 675467.299702474847436, 5921777.929569385945797 ], [ 675454.761305343592539, 5921804.779417771846056 ] ] ] ] } },
{ "type": "Feature", "properties": { "id": null, "Nombre": "Edificio de Aulas N°2" }, "geometry": { "type": "MultiPolygon", "coordinates": [ [ [ [ 675395.118778185220435, 5921808.485409750603139 ], [ 675417.030461797723547, 5921818.765142005868256 ], [ 675425.127657384844497, 5921801.777057006955147 ], [ 675402.782262412831187, 5921791.651309362612665 ], [ 675395.118778185220435, 5921808.485409750603139 ] ] ] ] } },
{ "type": "Feature", "properties": { "id": null, "Nombre": "Edificio Emprendo Incuba" }, "geometry": { "type": "MultiPolygon", "coordinates": [ [ [ [ 675430.798048688448034, 5921755.047836686484516 ], [ 675414.187260525301099, 5921789.708312315866351 ], [ 675423.391260251170024, 5921793.876704202964902 ], [ 675422.517202464281581, 5921795.710497204214334 ], [ 675432.08952321135439, 5921800.052879024296999 ], [ 675447.822476098546758, 5921767.044611819088459 ], [ 675440.274011649540626, 5921763.568483486771584 ], [ 675442.02958751632832, 5921760.263910721987486 ], [ 675430.798048688448034, 5921755.047836686484516 ] ] ] ] } },
{ "type": "Feature", "properties": { "id": null, "Nombre": "Incubadora Idea" }, "geometry": { "type": "MultiPolygon", "coordinates": [ [ [ [ 675443.093981315847486, 5921803.094702512957156 ], [ 675448.520587551174685, 5921792.08817134052515 ], [ 675449.811542192939669, 5921792.787903409451246 ], [ 675452.099027674063109, 5921788.746045461855829 ], [ 675450.808073417283595, 5921788.046314088627696 ], [ 675459.719636913854629, 5921769.160119611769915 ], [ 675449.220954629243352, 5921764.110548010095954 ], [ 675432.606481988332234, 5921798.589596660807729 ], [ 675443.093981315847486, 5921803.094702512957156 ] ] ] ] } },
{ "type": "Feature", "properties": { "id": null, "Nombre": "EmpreUdeC" }, "geometry": { "type": "MultiPolygon", "coordinates": [ [ [ [ 675437.547407862613909, 5921752.037358311004937 ], [ 675452.606680826051161, 5921759.374186612665653 ], [ 675452.691793713020161, 5921758.022970236837864 ], [ 675469.124329415266402, 5921766.231137533672154 ], [ 675472.250050517264754, 5921758.969614564441144 ], [ 675471.558246867731214, 5921752.798823533579707 ], [ 675473.854907529545017, 5921749.152952179312706 ], [ 675460.253976295469329, 5921741.336314275860786 ], [ 675439.317367921117693, 5921733.783187787048519 ], [ 675435.596542325103655, 5921734.084721019491553 ], [ 675431.837425034726039, 5921743.495897125452757 ], [ 675438.047057173680514, 5921748.878324296325445 ], [ 675437.547407862613909, 5921752.037358311004937 ] ] ] ] } },
{ "type": "Feature", "properties": { "id": null, "Nombre": "Planta Piloto \"Igor Wilkomirsky\"" }, "geometry": { "type": "MultiPolygon", "coordinates": [ [ [ [ 675520.214606656692922, 5921647.182418999262154 ], [ 675540.185769965406507, 5921629.723765860311687 ], [ 675526.47026303387247, 5921613.225614871829748 ], [ 675507.028424730058759, 5921630.406936691142619 ], [ 675520.214606656692922, 5921647.182418999262154 ] ] ] ] } },
{ "type": "Feature", "properties": { "id": null, "Nombre": "Centro de Biotecnología" }, "geometry": { "type": "MultiPolygon", "coordinates": [ [ [ [ 675629.634079184615985, 5921771.937177084386349 ], [ 675643.722964069573209, 5921763.008288597688079 ], [ 675637.681827931315638, 5921755.051734352484345 ], [ 675641.272542712511495, 5921752.748437353409827 ], [ 675604.591185452765785, 5921697.494446722790599 ], [ 675595.760044430848211, 5921703.528269123286009 ], [ 675598.683762932661921, 5921709.598457492887974 ], [ 675589.59008660109248, 5921716.473663706332445 ], [ 675602.288358275545761, 5921735.537855735979974 ], [ 675603.787537740776315, 5921734.752527454867959 ], [ 675629.634079184615985, 5921771.937177084386349 ] ] ] ] } },
{ "type": "Feature", "properties": { "id": null, "Nombre": "Laboratorio Silvotecnológico de la Madera" }, "geometry": { "type": "MultiPolygon", "coordinates": [ [ [ [ 675546.923551217187196, 5921739.347545623779297 ], [ 675557.142589127994142, 5921734.958225728943944 ], [ 675546.710164721705951, 5921711.281743464060128 ], [ 675536.586088652024046, 5921715.850767843425274 ], [ 675546.923551217187196, 5921739.347545623779297 ] ] ] ] } },
{ "type": "Feature", "properties": { "id": null, "Nombre": "Edificio Virginio Gómez" }, "geometry": { "type": "MultiPolygon", "coordinates": [ [ [ [ 675127.580854989821091, 5922268.026115586981177 ], [ 675136.75863291346468, 5922248.026151760481298 ], [ 675140.621974729117937, 5922249.378884970210493 ], [ 675145.67782150185667, 5922238.772587603889406 ], [ 675142.283914033323526, 5922236.932829175144434 ], [ 675144.112592996098101, 5922232.598819324746728 ], [ 675146.034452330204658, 5922232.798004666343331 ], [ 675147.398603024543263, 5922229.189614307135344 ], [ 675139.891938657267019, 5922225.524878494441509 ], [ 675141.476092759054154, 5922220.957211365923285 ], [ 675150.66989701136481, 5922225.064642239362001 ], [ 675157.329477556049824, 5922210.845056891441345 ], [ 675147.407019869191572, 5922206.275240501388907 ], [ 675152.392965609207749, 5922195.906908036209643 ], [ 675149.35842478252016, 5922194.587217999622226 ], [ 675155.558667587232776, 5922181.099771216511726 ], [ 675143.873545167385601, 5922175.351020111702383 ], [ 675127.683872503810562, 5922209.314126838929951 ], [ 675132.115332478308119, 5922211.065805209800601 ], [ 675109.51286624756176, 5922259.442285276949406 ], [ 675127.580854989821091, 5922268.026115586981177 ] ] ] ] } },
{ "type": "Feature", "properties": { "id": null, "Nombre": "Dirección de Tecnologías de Información" }, "geometry": { "type": "MultiPolygon", "coordinates": [ [ [ [ 675108.470615096623078, 5922341.191666083410382 ], [ 675124.843661199789494, 5922306.844155183061957 ], [ 675095.07039904105477, 5922293.54246156476438 ], [ 675079.101134580909275, 5922328.654536332935095 ], [ 675108.470615096623078, 5922341.191666083410382 ] ] ] ] } },
{ "type": "Feature", "properties": { "id": null, "Nombre": "Centro de Investigación en Ingeniería Matemática" }, "geometry": { "type": "MultiPolygon", "coordinates": [ [ [ [ 675313.580615215469152, 5922299.740995408967137 ], [ 675327.999961529741995, 5922300.096584537997842 ], [ 675329.723775130347349, 5922298.973988035693765 ], [ 675330.213982477551326, 5922301.573004739359021 ], [ 675338.739996808348224, 5922302.049839343875647 ], [ 675338.850935177179053, 5922296.829349490813911 ], [ 675346.272170315030962, 5922296.676634028553963 ], [ 675345.233605232671835, 5922288.653276251628995 ], [ 675331.250818633241579, 5922288.288735114037991 ], [ 675330.324068841990083, 5922285.698705174960196 ], [ 675313.544006475713104, 5922287.348518350161612 ], [ 675313.580615215469152, 5922299.740995408967137 ] ] ] ] } },
{ "type": "Feature", "properties": { "id": null, "Nombre": null }, "geometry": { "type": "MultiPolygon", "coordinates": [ [ [ [ 675288.369474040344357, 5922337.246552793309093 ], [ 675296.259589327848516, 5922336.871700228191912 ], [ 675295.23329963919241, 5922297.361011641100049 ], [ 675293.038477467023768, 5922294.430660014972091 ], [ 675284.726045066840015, 5922295.026734471321106 ], [ 675284.621939331758767, 5922300.342277788557112 ], [ 675280.781395390629768, 5922300.421282105147839 ], [ 675281.387301486451179, 5922309.122803773730993 ], [ 675285.672058199997991, 5922309.884806776419282 ], [ 675285.546882009133697, 5922324.552403952926397 ], [ 675289.400548115838319, 5922325.110738407820463 ], [ 675288.369474040344357, 5922337.246552793309093 ] ] ] ] } },
{ "type": "Feature", "properties": { "id": null, "Nombre": null }, "geometry": { "type": "MultiPolygon", "coordinates": [ [ [ [ 675285.8502470824169, 5922288.74329097289592 ], [ 675298.601417416939512, 5922282.323601894080639 ], [ 675285.416703744558617, 5922255.143299842253327 ], [ 675272.166281899670139, 5922262.342889761552215 ], [ 675285.8502470824169, 5922288.74329097289592 ] ] ] ] } },
{ "type": "Feature", "properties": { "id": null, "Nombre": null }, "geometry": { "type": "MultiPolygon", "coordinates": [ [ [ [ 675238.249006962170824, 5922279.46011721342802 ], [ 675264.998773113358766, 5922289.685327172279358 ], [ 675270.401247293339111, 5922276.746358200907707 ], [ 675243.646239075809717, 5922266.264734691008925 ], [ 675238.249006962170824, 5922279.46011721342802 ] ] ] ] } },
{ "type": "Feature", "properties": { "id": null, "Nombre": null }, "geometry": { "type": "MultiPolygon", "coordinates": [ [ [ [ 675211.866798552218825, 5922297.956083293072879 ], [ 675220.3124113320373, 5922307.177270142361522 ], [ 675239.496381619246677, 5922287.993048178032041 ], [ 675229.881494904868305, 5922279.265688593499362 ], [ 675211.866798552218825, 5922297.956083293072879 ] ] ] ] } },
{ "type": "Feature", "properties": { "id": null, "Nombre": null }, "geometry": { "type": "MultiPolygon", "coordinates": [ [ [ [ 675213.9739983107429, 5922262.555063720792532 ], [ 675219.38463312224485, 5922269.48766000661999 ], [ 675226.360416465788148, 5922264.698257616721094 ], [ 675230.321482139872387, 5922267.014707849361002 ], [ 675238.476232407265343, 5922261.002096219919622 ], [ 675246.541619859752245, 5922250.645112970843911 ], [ 675236.180934622185305, 5922237.22012055106461 ], [ 675229.822393326321617, 5922242.746168787591159 ], [ 675232.177766461973079, 5922247.493537051603198 ], [ 675213.9739983107429, 5922262.555063720792532 ] ] ] ] } },
{ "type": "Feature", "properties": { "id": null, "Nombre": null }, "geometry": { "type": "MultiPolygon", "coordinates": [ [ [ [ 675177.365250408300199, 5922281.328281423076987 ], [ 675190.810174526181072, 5922286.256772108376026 ], [ 675199.794528283411637, 5922268.265771802514791 ], [ 675209.949259344954044, 5922253.675003983080387 ], [ 675232.059691838105209, 5922239.101357810199261 ], [ 675224.383257025387138, 5922228.342854021117091 ], [ 675200.599087723297998, 5922244.660676463507116 ], [ 675189.049957781797275, 5922258.883807517588139 ], [ 675177.365250408300199, 5922281.328281423076987 ] ] ] ] } },
{ "type": "Feature", "properties": { "id": null, "Nombre": null }, "geometry": { "type": "MultiPolygon", "coordinates": [ [ [ [ 675385.478112508077174, 5921969.993439767509699 ], [ 675397.189413122134283, 5921975.321935266256332 ], [ 675404.735976779717021, 5921959.489229433238506 ], [ 675411.223488644929603, 5921962.656154859811068 ], [ 675418.550194993964396, 5921946.209142662584782 ], [ 675422.937151533435099, 5921947.975339945405722 ], [ 675425.096191457472742, 5921942.155035695061088 ], [ 675413.199058988480829, 5921937.861827909015119 ], [ 675411.994768318603747, 5921939.743144288659096 ], [ 675400.706160593312234, 5921934.818552125245333 ], [ 675385.478112508077174, 5921969.993439767509699 ] ] ] ] } },
{ "type": "Feature", "properties": { "id": null, "Nombre": "Edificio de Anatomía" }, "geometry": { "type": "MultiPolygon", "coordinates": [ [ [ [ 675051.10688699525781, 5922536.967309892177582 ], [ 675061.912153210258111, 5922524.573832572437823 ], [ 675060.840353010920808, 5922521.987673946656287 ], [ 675053.460089086438529, 5922516.922936014831066 ], [ 675049.057848749915138, 5922522.229720992967486 ], [ 675040.932426675688475, 5922516.310888197273016 ], [ 675042.179114170605317, 5922513.242409495636821 ], [ 675041.419073094497435, 5922511.664137977175415 ], [ 675045.396824841271155, 5922506.945676965638995 ], [ 675044.387188206892461, 5922500.301090932451189 ], [ 675044.387188206892461, 5922500.301090932451189 ], [ 675039.20674189471174, 5922496.060556495562196 ], [ 675032.088001500349492, 5922496.641476090066135 ], [ 675025.542493565008044, 5922503.875938042998314 ], [ 675016.235556746833026, 5922497.111975288018584 ], [ 675019.334589983685873, 5922492.121786205098033 ], [ 675010.888293081778102, 5922486.265024716034532 ], [ 675009.714042419800535, 5922487.48325568344444 ], [ 675003.7730640147347, 5922483.691227979958057 ], [ 675001.519625842454843, 5922484.268224188126624 ], [ 674997.881377317360602, 5922488.787699920125306 ], [ 674998.064960352494381, 5922491.238498685881495 ], [ 675003.214934766758233, 5922495.444817269220948 ], [ 675001.45764058700297, 5922497.471099256537855 ], [ 675003.073831999441609, 5922501.550973821431398 ], [ 675006.469110024860129, 5922504.665555094368756 ], [ 675010.997786994674243, 5922504.57254686113447 ], [ 675020.419699754100293, 5922512.224852319806814 ], [ 675018.752480313181877, 5922514.441998027265072 ], [ 675017.238887182902545, 5922514.132006547413766 ], [ 675013.510361596709117, 5922519.392980597913265 ], [ 675014.513915748335421, 5922521.55527414008975 ], [ 675025.477056917385198, 5922530.892627958208323 ], [ 675027.908938952023163, 5922530.842678202316165 ], [ 675031.658703008550219, 5922526.089772395789623 ], [ 675031.060762926470488, 5922524.524647416546941 ], [ 675033.502931567491032, 5922522.221046934835613 ], [ 675051.10688699525781, 5922536.967309892177582 ] ] ] ] } },
{ "type": "Feature", "properties": { "id": null, "Nombre": "Facultad de Ciencias Biológicas (Arco)" }, "geometry": { "type": "MultiPolygon", "coordinates": [ [ [ [ 674932.092214063624851, 5922526.598117851652205 ], [ 674938.658833926543593, 5922512.526871684007347 ], [ 674924.161049419781193, 5922508.984862012788653 ], [ 674924.394050343427807, 5922506.42032842990011 ], [ 674914.948398757725954, 5922505.476554185152054 ], [ 674915.00091960944701, 5922508.035226227715611 ], [ 674905.007560112630017, 5922508.240350056439638 ], [ 674890.096291214576922, 5922512.386023111641407 ], [ 674896.078112250426784, 5922525.488644145429134 ], [ 674903.74644380249083, 5922523.34033322148025 ], [ 674912.294689014554024, 5922522.311623081564903 ], [ 674920.315651190467179, 5922523.426857041195035 ], [ 674924.618953266181052, 5922524.333981995470822 ], [ 674924.618953266181052, 5922524.333981995470822 ], [ 674932.092214063624851, 5922526.598117851652205 ] ] ], [ [ [ 674944.467535828938708, 5922532.328588092699647 ], [ 674951.389579749200493, 5922536.174957295879722 ], [ 674959.367205068934709, 5922542.658640008419752 ], [ 674964.181812431663275, 5922549.53963908366859 ], [ 674969.381258645909838, 5922558.905547514557838 ], [ 674985.45845933270175, 5922553.423622626811266 ], [ 674980.704923623357899, 5922541.389581924304366 ], [ 674977.276143682422116, 5922536.972943464294076 ], [ 674974.817974928882904, 5922539.183846997097135 ], [ 674970.054526822874323, 5922534.794612292200327 ], [ 674972.151740265078843, 5922531.261629295535386 ], [ 674966.366829893551767, 5922525.896251380443573 ], [ 674964.712134480127133, 5922526.594972535967827 ], [ 674951.194901299430057, 5922518.563177779316902 ], [ 674944.467535828938708, 5922532.328588092699647 ] ] ] ] } },
{ "type": "Feature", "properties": { "id": null, "Nombre": "Casa del Arte José Clemente Orozco" }, "geometry": { "type": "MultiPolygon", "coordinates": [ [ [ [ 674847.179756077006459, 5922504.796093227341771 ], [ 674860.882376800407656, 5922510.966522166505456 ], [ 674865.313261486007832, 5922501.351809947751462 ], [ 674875.418693528394215, 5922505.138277921825647 ], [ 674879.994313127128407, 5922495.059764879755676 ], [ 674870.230717995902523, 5922464.945948218926787 ], [ 674859.866678073769435, 5922459.9776895288378 ], [ 674858.908314613159746, 5922455.53599351644516 ], [ 674865.08533490053378, 5922453.68225821852684 ], [ 674864.253732334589586, 5922448.37447605561465 ], [ 674867.134382946416736, 5922447.883617339655757 ], [ 674865.397551166824996, 5922440.723524991422892 ], [ 674863.236327008460648, 5922441.055704960599542 ], [ 674861.502451607724652, 5922434.039471697062254 ], [ 674855.885634233709425, 5922435.018218630924821 ], [ 674856.838090571109205, 5922439.172196129336953 ], [ 674856.292660840088502, 5922440.766449092887342 ], [ 674851.83459220151417, 5922441.865330573171377 ], [ 674852.648475506459363, 5922446.309984613209963 ], [ 674852.108948141802102, 5922448.191946886479855 ], [ 674848.674009692855179, 5922449.845492034219205 ], [ 674850.104166926583275, 5922456.148397948592901 ], [ 674853.704246171866544, 5922455.498866496607661 ], [ 674851.776609998662025, 5922463.614572285674512 ], [ 674846.984515945194289, 5922461.350287803448737 ], [ 674838.11152123240754, 5922480.970238892361522 ], [ 674847.179756077006459, 5922504.796093227341771 ] ] ] ] } },
{ "type": "Feature", "properties": { "id": null, "Nombre": "Casa del Deporte" }, "geometry": { "type": "MultiPolygon", "coordinates": [ [ [ [ 675086.069467597524635, 5922611.807038683444262 ], [ 675115.570668072090484, 5922605.017122834920883 ], [ 675109.891112480079755, 5922575.901696683838964 ], [ 675129.268619697890244, 5922571.006242694333196 ], [ 675122.178176602348685, 5922541.919933542609215 ], [ 675073.282412390224636, 5922552.76232010871172 ], [ 675074.514999696286395, 5922557.796382520347834 ], [ 675063.285850712913089, 5922560.837848687544465 ], [ 675069.126197579316795, 5922584.04730019159615 ], [ 675078.973375560482964, 5922582.439602872356772 ], [ 675086.069467597524635, 5922611.807038683444262 ] ] ] ] } },
{ "type": "Feature", "properties": { "id": null, "Nombre": null }, "geometry": { "type": "MultiPolygon", "coordinates": [ [ [ [ 675001.630771232536063, 5922475.121918119490147 ], [ 675022.654590206337161, 5922484.435469991527498 ], [ 675020.983549626078457, 5922488.364389137364924 ], [ 675030.794556225766428, 5922492.773335160687566 ], [ 675032.407861608196981, 5922489.541990680620074 ], [ 675036.362809351878241, 5922491.279916455037892 ], [ 675037.32574362156447, 5922489.382290851324797 ], [ 675044.083894385024905, 5922492.245825311169028 ], [ 675052.787327551399358, 5922472.986498961225152 ], [ 675045.9241731998045, 5922469.833537900820374 ], [ 675039.278171518002637, 5922484.9995844559744 ], [ 675037.31628841732163, 5922484.090707921423018 ], [ 675036.020992476958781, 5922487.074363268911839 ], [ 675033.834718244848773, 5922485.951054258272052 ], [ 675035.066461192560382, 5922483.443293025717139 ], [ 675004.140396625734866, 5922469.620645533315837 ], [ 675001.630771232536063, 5922475.121918119490147 ] ] ] ] } },
{ "type": "Feature", "properties": { "id": null, "Nombre": null }, "geometry": { "type": "MultiPolygon", "coordinates": [ [ [ [ 675049.259108432685025, 5922481.878926737233996 ], [ 675043.515833728248253, 5922494.151698462665081 ], [ 675046.316231805598363, 5922495.448533172719181 ], [ 675051.969477524515241, 5922483.062652543187141 ], [ 675049.259108432685025, 5922481.878926737233996 ] ] ] ] } },
{ "type": "Feature", "properties": { "id": null, "Nombre": null }, "geometry": { "type": "MultiPolygon", "coordinates": [ [ [ [ 675027.971375534776598, 5922474.993969365954399 ], [ 675029.151095059234649, 5922475.660076475702226 ], [ 675028.303850190131925, 5922477.371947005391121 ], [ 675034.347076023812406, 5922480.203821236267686 ], [ 675035.051589184440672, 5922478.567383915185928 ], [ 675036.568272953503765, 5922479.296526314690709 ], [ 675035.736550390371121, 5922480.935576917603612 ], [ 675037.896567825926468, 5922482.006309797056019 ], [ 675038.698164911940694, 5922480.139788563363254 ], [ 675039.389780077268369, 5922480.353670869022608 ], [ 675042.487486636033282, 5922474.059358182363212 ], [ 675041.315576647757553, 5922473.418549900874496 ], [ 675040.583655180293135, 5922474.597127079963684 ], [ 675038.578589917393401, 5922473.552993007004261 ], [ 675039.019853724399582, 5922472.566162304952741 ], [ 675037.552205549785867, 5922471.837407693266869 ], [ 675037.077074797125533, 5922472.79302279651165 ], [ 675030.486692490405403, 5922469.740981187671423 ], [ 675027.971375534776598, 5922474.993969365954399 ] ] ] ] } },
{ "type": "Feature", "properties": { "id": null, "Nombre": "Facultad de Odontología" }, "geometry": { "type": "MultiPolygon", "coordinates": [ [ [ [ 675086.46686350973323, 5922731.209100826643407 ], [ 675135.189557176898234, 5922719.197631277143955 ], [ 675131.594451293232851, 5922704.781107850372791 ], [ 675139.852660384960473, 5922702.908740065991879 ], [ 675138.653804883826524, 5922697.108421528711915 ], [ 675131.037317435489967, 5922699.024088402278721 ], [ 675126.251474169199355, 5922680.532665209844708 ], [ 675076.704827320994809, 5922692.806798441335559 ], [ 675086.46686350973323, 5922731.209100826643407 ] ] ] ] } }
]
}
