{
"type": "FeatureCollection",
"name": "Estacionamientos",
"crs": { "type": "name", "properties": { "name": "urn:ogc:def:crs:EPSG::32718" } },
"features": [
{ "type": "Feature", "properties": { "id": null }, "geometry": { "type": "MultiPolygon", "coordinates": [ [ [ [ 675379.180970102665015, 5921896.368488477542996 ], [ 675395.757038994808681, 5921903.686055453494191 ], [ 675425.416817614575848, 5921916.703685277141631 ], [ 675427.905326199368574, 5921913.987913191318512 ], [ 675431.417889481643215, 5921914.133990360423923 ], [ 675433.253823764272965, 5921909.553378738462925 ], [ 675413.964893407886848, 5921900.862760470248759 ], [ 675411.495627977768891, 5921893.333668136969209 ], [ 675385.571403060806915, 5921881.793412122875452 ], [ 675379.180970102665015, 5921896.368488477542996 ] ] ] ] } },
{ "type": "Feature", "properties": { "id": null }, "geometry": { "type": "MultiPolygon", "coordinates": [ [ [ [ 675458.510413335519843, 5921865.044457069598138 ], [ 675404.020722964894958, 5921841.981817070394754 ], [ 675398.811657108832151, 5921853.892289014533162 ], [ 675403.971556144417264, 5921856.075539818033576 ], [ 675402.372712132055312, 5921860.354559849016368 ], [ 675442.50793907395564, 5921878.769532419741154 ], [ 675444.316846628556959, 5921873.431979632005095 ], [ 675446.168566901353188, 5921871.120298722758889 ], [ 675451.34473889018409, 5921869.217650888487697 ], [ 675455.554066597484052, 5921871.571327191777527 ], [ 675458.510413335519843, 5921865.044457069598138 ] ] ] ] } },
{ "type": "Feature", "properties": { "id": null }, "geometry": { "type": "MultiPolygon", "coordinates": [ [ [ [ 675468.515407328959554, 5921777.292227402329445 ], [ 675497.514754048199393, 5921792.006023506633937 ], [ 675508.415712321409956, 5921769.791252718307078 ], [ 675508.30083543760702, 5921765.402585417032242 ], [ 675505.024484786204994, 5921758.658308826386929 ], [ 675483.213189629022963, 5921747.579633451066911 ], [ 675468.515407328959554, 5921777.292227402329445 ] ] ] ] } },
{ "type": "Feature", "properties": { "id": null }, "geometry": { "type": "MultiPolygon", "coordinates": [ [ [ [ 675324.249878121423535, 5921869.477748861536384 ], [ 675331.368821512092836, 5921853.470071824267507 ], [ 675317.079987278673798, 5921846.888899999670684 ], [ 675303.756693236413412, 5921833.735019882209599 ], [ 675292.320729608647525, 5921822.361034877598286 ], [ 675289.348225128720514, 5921825.330039503052831 ], [ 675278.205874080886133, 5921836.885779990814626 ], [ 675274.332221442367882, 5921843.746964829042554 ], [ 675268.461616168962792, 5921856.821902500465512 ], [ 675262.935884295613505, 5921869.123850333504379 ], [ 675278.50658778520301, 5921875.945617136545479 ], [ 675288.547638595919125, 5921854.237917384132743 ], [ 675310.196371487458237, 5921863.723082843236625 ], [ 675324.249878121423535, 5921869.477748861536384 ] ] ] ] } },
{ "type": "Feature", "properties": { "id": null }, "geometry": { "type": "MultiPolygon", "coordinates": [ [ [ [ 675256.347605305840261, 5921925.351333126425743 ], [ 675272.847871313802898, 5921888.326460648328066 ], [ 675249.824450562475249, 5921878.329253261908889 ], [ 675255.17343172559049, 5921866.224004503339529 ], [ 675255.107327574165538, 5921865.822229640558362 ], [ 675252.27666370337829, 5921864.584668344818056 ], [ 675245.42408687248826, 5921869.386595176532865 ], [ 675221.266666239826009, 5921884.49032131023705 ], [ 675203.492669921484776, 5921895.721450844779611 ], [ 675212.209917239961214, 5921899.416636026464403 ], [ 675209.813188184984028, 5921904.88091494794935 ], [ 675256.347605305840261, 5921925.351333126425743 ] ] ] ] } },
{ "type": "Feature", "properties": { "id": null }, "geometry": { "type": "MultiPolygon", "coordinates": [ [ [ [ 675096.567077218554914, 5921971.715921747498214 ], [ 675080.6889454604825, 5922006.667673503048718 ], [ 675121.860827654949389, 5922026.509124347940087 ], [ 675138.200416971696541, 5921990.623348677530885 ], [ 675096.567077218554914, 5921971.715921747498214 ] ] ] ] } },
{ "type": "Feature", "properties": { "id": null }, "geometry": { "type": "MultiPolygon", "coordinates": [ [ [ [ 675037.917028444353491, 5922134.615704504773021 ], [ 675013.395034120534547, 5922185.473713388666511 ], [ 675036.557988279033452, 5922196.05485687404871 ], [ 675060.370269122067839, 5922145.714679420925677 ], [ 675037.917028444353491, 5922134.615704504773021 ] ] ] ] } },
{ "type": "Feature", "properties": { "id": null }, "geometry": { "type": "MultiPolygon", "coordinates": [ [ [ [ 674882.738694349653088, 5922381.570885811932385 ], [ 674860.881288998061791, 5922421.773760985583067 ], [ 674859.82569265679922, 5922424.901391729712486 ], [ 674887.340090620331466, 5922439.443480433896184 ], [ 674908.458930257940665, 5922394.548183526843786 ], [ 674906.423719387850724, 5922392.500888149254024 ], [ 674882.738694349653088, 5922381.570885811932385 ] ] ] ] } },
{ "type": "Feature", "properties": { "id": null }, "geometry": { "type": "MultiPolygon", "coordinates": [ [ [ [ 675004.329163421760313, 5922573.846809074282646 ], [ 675032.341075223288499, 5922586.845579545013607 ], [ 675050.611162064597011, 5922549.472601101733744 ], [ 675041.153939684387296, 5922545.381602983921766 ], [ 675022.290146670187823, 5922536.869508104398847 ], [ 675019.642490223632194, 5922541.346448143944144 ], [ 675019.178500142646953, 5922542.65051856264472 ], [ 675015.96621823462192, 5922549.332268522121012 ], [ 675004.329163421760313, 5922573.846809074282646 ] ] ] ] } },
{ "type": "Feature", "properties": { "id": null }, "geometry": { "type": "MultiPolygon", "coordinates": [ [ [ [ 675076.213924624025822, 5922498.516357682645321 ], [ 675091.162983191781677, 5922466.218911307863891 ], [ 675092.288794129039161, 5922457.185899462550879 ], [ 675067.929063147399575, 5922446.043506264686584 ], [ 675048.971484886715189, 5922486.043985629454255 ], [ 675076.213924624025822, 5922498.516357682645321 ] ] ] ] } },
{ "type": "Feature", "properties": { "id": null }, "geometry": { "type": "MultiPolygon", "coordinates": [ [ [ [ 675098.685890599270351, 5922520.270437858998775 ], [ 675078.026672773645259, 5922525.549482981674373 ], [ 675075.468468333012424, 5922531.032355329953134 ], [ 675079.692232273402624, 5922546.488000091165304 ], [ 675112.965362185495906, 5922539.337885202839971 ], [ 675112.072142087621614, 5922533.882094645872712 ], [ 675104.326267157448456, 5922534.111297460272908 ], [ 675101.865001731202938, 5922532.559331886470318 ], [ 675098.685890599270351, 5922520.270437858998775 ] ] ] ] } },
{ "type": "Feature", "properties": { "id": null }, "geometry": { "type": "MultiPolygon", "coordinates": [ [ [ [ 675197.647950570564717, 5922504.065100962296128 ], [ 675181.313518716720864, 5922532.820332022383809 ], [ 675190.93230213096831, 5922537.59209500439465 ], [ 675199.095521736657247, 5922532.13488216791302 ], [ 675206.918698107940145, 5922517.285374412313104 ], [ 675206.795308081200346, 5922511.3428935110569 ], [ 675197.647950570564717, 5922504.065100962296128 ] ] ] ] } },
{ "type": "Feature", "properties": { "id": null }, "geometry": { "type": "MultiPolygon", "coordinates": [ [ [ [ 675071.687078907620162, 5922621.508136044256389 ], [ 675084.014324035611935, 5922674.183849729597569 ], [ 675155.424808666226454, 5922659.443979235365987 ], [ 675139.23195549286902, 5922606.646453725174069 ], [ 675071.687078907620162, 5922621.508136044256389 ] ] ] ] } },
{ "type": "Feature", "properties": { "id": null }, "geometry": { "type": "MultiPolygon", "coordinates": [ [ [ [ 675121.445275235455483, 5922407.816102474927902 ], [ 675142.150208524661139, 5922366.603054674342275 ], [ 675129.395648642326705, 5922361.561396664008498 ], [ 675119.373517674044706, 5922381.769018018618226 ], [ 675109.532165784272365, 5922402.41889526695013 ], [ 675121.445275235455483, 5922407.816102474927902 ] ] ] ] } },
{ "type": "Feature", "properties": { "id": null }, "geometry": { "type": "MultiPolygon", "coordinates": [ [ [ [ 675146.579841962899081, 5922334.71486964635551 ], [ 675150.737595996120945, 5922328.352361203171313 ], [ 675146.133729237946682, 5922322.683043371886015 ], [ 675141.542589861201122, 5922315.965876523405313 ], [ 675139.366049608681351, 5922310.548536852002144 ], [ 675137.139164767111652, 5922303.913848038762808 ], [ 675134.102529669413343, 5922291.984929705038667 ], [ 675134.071530394256115, 5922290.476724829524755 ], [ 675115.726300637819804, 5922286.539846196770668 ], [ 675109.551053407602012, 5922299.922198982909322 ], [ 675125.046685819979757, 5922306.753427817486227 ], [ 675124.600310998503119, 5922307.42919803597033 ], [ 675127.878351176972501, 5922311.524340347386897 ], [ 675122.527514293673448, 5922322.39686328265816 ], [ 675132.33133527263999, 5922322.835695821791887 ], [ 675146.579841962899081, 5922334.71486964635551 ] ] ] ] } },
{ "type": "Feature", "properties": { "id": null }, "geometry": { "type": "MultiPolygon", "coordinates": [ [ [ [ 675154.498161123599857, 5922298.971205625683069 ], [ 675139.787656316999346, 5922293.534178266301751 ], [ 675152.398131542373449, 5922321.711810300126672 ], [ 675160.629369636299089, 5922317.960627088323236 ], [ 675154.498161123599857, 5922298.971205625683069 ] ] ] ] } },
{ "type": "Feature", "properties": { "id": null }, "geometry": { "type": "MultiPolygon", "coordinates": [ [ [ [ 675175.835822650464252, 5922336.587804494425654 ], [ 675171.635567800374702, 5922345.894866043701768 ], [ 675178.397647612728179, 5922349.748326528817415 ], [ 675182.546029986115173, 5922351.849397831596434 ], [ 675204.25398006895557, 5922360.611743067391217 ], [ 675210.573844546219334, 5922363.361389357596636 ], [ 675214.608257320243865, 5922360.9348822562024 ], [ 675222.314830308081582, 5922344.834983905777335 ], [ 675224.823282272787765, 5922339.793122528120875 ], [ 675223.605498429154977, 5922333.361111925914884 ], [ 675222.22021300450433, 5922330.880151907913387 ], [ 675218.86368444794789, 5922324.379786627367139 ], [ 675210.424373768502846, 5922329.571739038452506 ], [ 675187.803804283146746, 5922342.424100441858172 ], [ 675175.835822650464252, 5922336.587804494425654 ] ] ] ] } },
{ "type": "Feature", "properties": { "id": null }, "geometry": { "type": "MultiPolygon", "coordinates": [ [ [ [ 675256.486078437650576, 5922367.30468587949872 ], [ 675252.90072418784257, 5922369.006396293640137 ], [ 675252.181058461312205, 5922378.313555424101651 ], [ 675250.364465488120914, 5922384.212482634931803 ], [ 675274.823849548120052, 5922396.719022758305073 ], [ 675285.072981501463801, 5922385.133888127282262 ], [ 675278.379667687811889, 5922385.610944109037519 ], [ 675267.954611314693466, 5922381.413552695885301 ], [ 675260.4669915123377, 5922374.865776831284165 ], [ 675260.4669915123377, 5922374.865776831284165 ], [ 675256.486078437650576, 5922367.30468587949872 ] ] ] ] } },
{ "type": "Feature", "properties": { "id": null }, "geometry": { "type": "MultiPolygon", "coordinates": [ [ [ [ 675351.938358767773025, 5922403.424115799367428 ], [ 675381.905379556817934, 5922399.099419107660651 ], [ 675381.131743561010808, 5922388.609238042496145 ], [ 675380.799711701110937, 5922384.978165036998689 ], [ 675380.092874397523701, 5922373.404718758538365 ], [ 675362.329443878727034, 5922374.887195631861687 ], [ 675350.837007042486221, 5922375.925114809535444 ], [ 675347.424579829908907, 5922376.158921098336577 ], [ 675350.204502647509798, 5922381.449983024969697 ], [ 675350.907832316239364, 5922382.942393436096609 ], [ 675350.482374521438032, 5922384.895930920727551 ], [ 675344.900579616427422, 5922390.203345319256186 ], [ 675351.938358767773025, 5922403.424115799367428 ] ] ] ] } },
{ "type": "Feature", "properties": { "id": null }, "geometry": { "type": "MultiPolygon", "coordinates": [ [ [ [ 675299.107755178236403, 5922235.417774976231158 ], [ 675330.978445584885776, 5922226.249623904004693 ], [ 675327.774232764961198, 5922211.494881059043109 ], [ 675295.301015803823248, 5922221.055421687662601 ], [ 675299.107755178236403, 5922235.417774976231158 ] ] ] ] } },
{ "type": "Feature", "properties": { "id": null }, "geometry": { "type": "MultiPolygon", "coordinates": [ [ [ [ 675297.396537804161198, 5922163.667172933928668 ], [ 675288.97685870481655, 5922153.978801499120891 ], [ 675282.27329822559841, 5922159.155985704623163 ], [ 675280.04676659218967, 5922159.46116423420608 ], [ 675279.432827955810353, 5922162.178700495511293 ], [ 675280.368937229155563, 5922163.805756628513336 ], [ 675280.130198480561376, 5922164.851546004414558 ], [ 675275.385073849698529, 5922178.727472795173526 ], [ 675273.029111001756974, 5922185.797705966979265 ], [ 675275.255281199351884, 5922187.497341032139957 ], [ 675292.447951867012307, 5922183.773528967052698 ], [ 675292.30943308363203, 5922181.587507294490933 ], [ 675292.031613021274097, 5922179.450923752970994 ], [ 675297.396537804161198, 5922163.667172933928668 ] ] ] ] } },
{ "type": "Feature", "properties": { "id": null }, "geometry": { "type": "MultiPolygon", "coordinates": [ [ [ [ 675394.287949695717543, 5921980.742486493662 ], [ 675381.689465802977793, 5921974.464395451359451 ], [ 675347.422602408216335, 5922046.397008765488863 ], [ 675363.52678489824757, 5922053.901183005422354 ], [ 675380.672540524508804, 5922018.124657806940377 ], [ 675385.277719531208277, 5922008.958871372044086 ], [ 675380.479924964369275, 5922006.09295735694468 ], [ 675394.287949695717543, 5921980.742486493662 ] ] ] ] } },
{ "type": "Feature", "properties": { "id": null }, "geometry": { "type": "MultiPolygon", "coordinates": [ [ [ [ 675238.73670334846247, 5922012.32290774770081 ], [ 675213.534833504585549, 5922062.58073696307838 ], [ 675215.130639184499159, 5922069.262594771571457 ], [ 675215.65262977941893, 5922069.873232642188668 ], [ 675219.218917411286384, 5922074.331230157986283 ], [ 675221.115161617170088, 5922076.649615561589599 ], [ 675224.712495060288347, 5922078.985208093188703 ], [ 675227.072283131652512, 5922079.98082572594285 ], [ 675237.364804537501186, 5922058.534410183317959 ], [ 675244.994699456961825, 5922042.227840262465179 ], [ 675248.807663920335472, 5922034.997271098196507 ], [ 675252.134815804543905, 5922032.404369912110269 ], [ 675254.584050324978307, 5922031.151864673942327 ], [ 675258.121880578575656, 5922029.997178990393877 ], [ 675259.516904121963307, 5922027.383913623169065 ], [ 675262.37993183627259, 5922022.13020696491003 ], [ 675250.139342330978252, 5922015.731447556987405 ], [ 675249.184955837437883, 5922017.798347249627113 ], [ 675238.73670334846247, 5922012.32290774770081 ] ] ] ] } },
{ "type": "Feature", "properties": { "id": null }, "geometry": { "type": "MultiPolygon", "coordinates": [ [ [ [ 675217.021265786723234, 5922095.532030903734267 ], [ 675210.370652937330306, 5922094.526242285035551 ], [ 675196.782960146898404, 5922123.266111571341753 ], [ 675199.680156601825729, 5922131.592399103567004 ], [ 675217.021265786723234, 5922095.532030903734267 ] ] ] ] } },
{ "type": "Feature", "properties": { "id": null }, "geometry": { "type": "MultiPolygon", "coordinates": [ [ [ [ 675191.382221822277643, 5922148.923367187380791 ], [ 675172.034265612368472, 5922139.224942513741553 ], [ 675171.468798238318413, 5922139.317271838895977 ], [ 675154.437269935966469, 5922173.995718825608492 ], [ 675162.91533177671954, 5922178.122501413337886 ], [ 675160.346447890624404, 5922184.404613332822919 ], [ 675171.593014516867697, 5922190.436714181676507 ], [ 675191.382221822277643, 5922148.923367187380791 ] ] ] ] } },
{ "type": "Feature", "properties": { "id": null }, "geometry": { "type": "MultiPolygon", "coordinates": [ [ [ [ 675169.660208131885156, 5922193.082297232933342 ], [ 675162.564136173226871, 5922188.419386262074113 ], [ 675157.344003246631473, 5922201.657689408399165 ], [ 675155.011118973488919, 5922210.281044019386172 ], [ 675160.470895158243366, 5922212.711263291537762 ], [ 675169.660208131885156, 5922193.082297232933342 ] ] ] ] } }
]
}
