{
"type": "FeatureCollection",
"name": "Lagunas",
"crs": { "type": "name", "properties": { "name": "urn:ogc:def:crs:EPSG::32718" } },
"features": [
{ "type": "Feature", "properties": { "id": null }, "geometry": { "type": "MultiPolygon", "coordinates": [ [ [ [ 675148.229819569620304, 5922387.385630281642079 ], [ 675144.765977613278665, 5922382.643910458311439 ], [ 675140.539059594389983, 5922382.541728068143129 ], [ 675134.185092599829659, 5922395.161229467019439 ], [ 675137.656853646156378, 5922397.961881224066019 ], [ 675140.445954720140435, 5922402.014755108393729 ], [ 675136.876829968299717, 5922414.627244076691568 ], [ 675125.674260121770203, 5922418.569071895442903 ], [ 675120.499319163151085, 5922429.948788430541754 ], [ 675114.48739320540335, 5922441.998256503604352 ], [ 675115.565958007588051, 5922444.2147510163486 ], [ 675115.78698250267189, 5922446.050504230894148 ], [ 675116.040290465112776, 5922448.675498674623668 ], [ 675118.132923039142042, 5922453.20973293017596 ], [ 675117.813843111274764, 5922454.553998241201043 ], [ 675117.486013797926717, 5922457.581367030739784 ], [ 675118.513397191418335, 5922459.070569768548012 ], [ 675123.929391871904954, 5922461.116860182955861 ], [ 675124.389179164660163, 5922460.91388919763267 ], [ 675130.842576310271397, 5922454.768321168608963 ], [ 675139.519191289320588, 5922447.887156346812844 ], [ 675148.467176510253921, 5922442.953228662721813 ], [ 675154.379984310013242, 5922433.519050983712077 ], [ 675156.078100887942128, 5922431.025049108080566 ], [ 675156.576617952552624, 5922430.24633432738483 ], [ 675156.50398609903641, 5922426.712877453304827 ], [ 675145.5524934574496, 5922419.395483992993832 ], [ 675145.84259972604923, 5922414.470864322036505 ], [ 675148.011251259129494, 5922410.468348573893309 ], [ 675169.287362427450716, 5922406.872957969084382 ], [ 675170.086834294954315, 5922407.434604019857943 ], [ 675189.810790778137743, 5922424.171243419870734 ], [ 675191.110703663202003, 5922424.21842407528311 ], [ 675193.938008920988068, 5922421.190970893017948 ], [ 675194.862672784249298, 5922414.225131317973137 ], [ 675173.752311908290721, 5922401.087384614162147 ], [ 675173.43564127467107, 5922396.635521780699492 ], [ 675172.33183220284991, 5922393.269629869610071 ], [ 675168.575468649505638, 5922390.855560821481049 ], [ 675161.695087885251269, 5922387.58914908580482 ], [ 675157.115385858574882, 5922382.019895326346159 ], [ 675153.779183892183937, 5922381.987830644473433 ], [ 675151.226732903160155, 5922385.663427110761404 ], [ 675148.229819569620304, 5922387.385630281642079 ] ] ] ] } }
]
}
