{
"type": "FeatureCollection",
"name": "Áreas Verdes",
"crs": { "type": "name", "properties": { "name": "urn:ogc:def:crs:EPSG::32718" } },
"features": [
{ "type": "Feature", "properties": { "id": null }, "geometry": { "type": "MultiPolygon", "coordinates": [ [ [ [ 674932.749948119628243, 5922413.178312806412578 ], [ 674925.417525296797976, 5922425.975069617852569 ], [ 674920.429694665130228, 5922432.22793435305357 ], [ 674909.887752803508192, 5922446.147875988855958 ], [ 674907.50110892218072, 5922450.77574572339654 ], [ 674913.698360840557143, 5922480.336249811574817 ], [ 674916.13830641657114, 5922483.659775732085109 ], [ 674919.884499484091066, 5922484.594960517250001 ], [ 674924.971549512236379, 5922484.827896586619318 ], [ 674928.268308361410163, 5922480.374526359140873 ], [ 674930.274844027240761, 5922477.203652177937329 ], [ 674938.123607113375328, 5922458.523355667479336 ], [ 674945.003161721862853, 5922445.972050284966826 ], [ 674953.248654378112406, 5922437.965827230364084 ], [ 674957.057989806635305, 5922434.452248324640095 ], [ 674960.216275842511095, 5922430.737326280213892 ], [ 674962.400193403824233, 5922426.827700743451715 ], [ 674932.749948119628243, 5922413.178312806412578 ] ] ] ] } },
{ "type": "Feature", "properties": { "id": null }, "geometry": { "type": "MultiPolygon", "coordinates": [ [ [ [ 674887.415063710417598, 5922439.543707305565476 ], [ 674896.839188127778471, 5922443.99658621288836 ], [ 674904.339324770495296, 5922444.453999254852533 ], [ 674906.776712789898738, 5922443.548071361146867 ], [ 674909.89288391219452, 5922439.815973518416286 ], [ 674913.500041581690311, 5922436.073797523975372 ], [ 674917.560552413342521, 5922430.488250021822751 ], [ 674921.042446625418961, 5922426.626374713145196 ], [ 674922.820931289694272, 5922423.533092803321779 ], [ 674924.832364028668962, 5922419.823675189167261 ], [ 674930.507946821628138, 5922408.85352641902864 ], [ 674936.823263513855636, 5922411.573053160682321 ], [ 674965.631597299594432, 5922424.256528718397021 ], [ 674969.108399994671345, 5922416.607308629900217 ], [ 674975.992966477642767, 5922401.860914135351777 ], [ 674975.694254057947546, 5922400.852107727900147 ], [ 674973.818995045381598, 5922399.783407460898161 ], [ 674972.340298643801361, 5922399.325399834662676 ], [ 674978.635855043306947, 5922388.778871199116111 ], [ 674980.857202678220347, 5922390.141324354335666 ], [ 674981.885840600240044, 5922389.810909694992006 ], [ 674997.451838753651828, 5922358.131966462358832 ], [ 674982.261418440612033, 5922350.954748077318072 ], [ 674978.227416405570693, 5922352.909880575723946 ], [ 674973.573289173189551, 5922355.189794383943081 ], [ 674965.182404180057347, 5922358.638607170432806 ], [ 674962.685896181967109, 5922359.157942393794656 ], [ 674958.303396982955746, 5922359.403952497057617 ], [ 674951.054510026471689, 5922361.027444865554571 ], [ 674946.278976217028685, 5922362.667563286609948 ], [ 674941.937478730338626, 5922365.597353273071349 ], [ 674938.405237984610721, 5922368.313614787533879 ], [ 674933.142564547481015, 5922378.803768651559949 ], [ 674929.376094190403819, 5922385.354438031092286 ], [ 674908.803768035257235, 5922394.507455384358764 ], [ 674887.415063710417598, 5922439.543707305565476 ] ] ] ] } },
{ "type": "Feature", "properties": { "id": null }, "geometry": { "type": "MultiPolygon", "coordinates": [ [ [ [ 674856.706926236045547, 5922428.831160609610379 ], [ 674835.077091920305975, 5922473.369031684473157 ], [ 674847.489400407182984, 5922505.010025810450315 ], [ 674847.511873481213115, 5922510.554711051285267 ], [ 674869.732586232246831, 5922521.189047741703689 ], [ 674869.732586232246831, 5922521.189047741703689 ], [ 674868.752015027333982, 5922518.695926079526544 ], [ 674879.824770704843104, 5922505.703682391904294 ], [ 674907.640318185789511, 5922491.471641380339861 ], [ 674911.227304855361581, 5922485.348868289962411 ], [ 674904.850733920233324, 5922454.225899388082325 ], [ 674903.201370290596969, 5922450.302465904504061 ], [ 674856.706926236045547, 5922428.831160609610379 ] ] ] ] } },
{ "type": "Feature", "properties": { "id": null }, "geometry": { "type": "MultiPolygon", "coordinates": [ [ [ [ 674914.993589919991791, 5922493.326522741466761 ], [ 674910.273421116173267, 5922494.157143227756023 ], [ 674880.421558670466766, 5922511.750510613434017 ], [ 674873.659314325428568, 5922520.798913279548287 ], [ 674875.61146428307984, 5922523.588970486074686 ], [ 674910.337052854243666, 5922540.314031114801764 ], [ 674923.317565217730589, 5922536.6687505338341 ], [ 674925.048634785693139, 5922535.41277564316988 ], [ 674919.395152171840891, 5922532.681132709607482 ], [ 674920.65686653368175, 5922523.684380609542131 ], [ 674916.83543015923351, 5922514.114953256212175 ], [ 674915.497594324871898, 5922514.03154968097806 ], [ 674914.993589919991791, 5922493.326522741466761 ] ] ] ] } },
{ "type": "Feature", "properties": { "id": null }, "geometry": { "type": "MultiPolygon", "coordinates": [ [ [ [ 674933.424861749401316, 5922512.164053415879607 ], [ 674936.898548824130557, 5922504.05781933106482 ], [ 674941.49624699447304, 5922505.841157000511885 ], [ 674943.339096990181133, 5922501.611191752366722 ], [ 674927.870505624916404, 5922495.026127954944968 ], [ 674925.654950670083053, 5922497.406823699362576 ], [ 674924.386694207554683, 5922510.477862182073295 ], [ 674933.424861749401316, 5922512.164053415879607 ] ] ] ] } },
{ "type": "Feature", "properties": { "id": null }, "geometry": { "type": "MultiPolygon", "coordinates": [ [ [ [ 674982.363993620499969, 5922577.013316860422492 ], [ 674991.639618798275478, 5922569.785196502692997 ], [ 674999.339527251664549, 5922553.814104499295354 ], [ 674961.1605615116423, 5922567.326433246955276 ], [ 674982.363993620499969, 5922577.013316860422492 ] ] ] ] } },
{ "type": "Feature", "properties": { "id": null }, "geometry": { "type": "MultiPolygon", "coordinates": [ [ [ [ 675015.737328708637506, 5922549.644107758998871 ], [ 675003.031854261993431, 5922552.652207261882722 ], [ 674995.00542727636639, 5922570.600738700479269 ], [ 674985.928115211892873, 5922578.491831543855369 ], [ 675027.00565591303166, 5922599.152405016124249 ], [ 675032.267060223966837, 5922586.936695795506239 ], [ 675004.293509448412806, 5922573.858625690452754 ], [ 675015.737328708637506, 5922549.644107758998871 ] ] ] ] } },
{ "type": "Feature", "properties": { "id": null }, "geometry": { "type": "MultiPolygon", "coordinates": [ [ [ [ 675025.505506084300578, 5922538.346851997077465 ], [ 675031.306693286751397, 5922526.72270137257874 ], [ 675022.717347012017854, 5922521.931061800569296 ], [ 675013.556676730513573, 5922519.155805664137006 ], [ 675010.581732287886553, 5922519.216904805973172 ], [ 675005.353649561060593, 5922528.911761271767318 ], [ 675009.089596053934656, 5922536.069235648028553 ], [ 675019.020056442823261, 5922542.227899108082056 ], [ 675022.232270998414606, 5922536.670899423770607 ], [ 675025.505506084300578, 5922538.346851997077465 ] ] ] ] } },
{ "type": "Feature", "properties": { "id": null }, "geometry": { "type": "MultiPolygon", "coordinates": [ [ [ [ 675052.905736652668566, 5922542.891390707343817 ], [ 675035.842591603170149, 5922528.974801265634596 ], [ 675029.541995591600426, 5922540.120577339082956 ], [ 675050.682340142317116, 5922549.438533083535731 ], [ 675052.905736652668566, 5922542.891390707343817 ] ] ] ] } },
{ "type": "Feature", "properties": { "id": null }, "geometry": { "type": "MultiPolygon", "coordinates": [ [ [ [ 675054.040725976112299, 5922540.526063565164804 ], [ 675060.803383777034469, 5922526.755208865739405 ], [ 675064.260827063582838, 5922523.575146468356252 ], [ 675066.535935206338763, 5922519.009234939701855 ], [ 675063.995838347589597, 5922514.854786286130548 ], [ 675058.60720452957321, 5922512.60132457409054 ], [ 675053.428603332489729, 5922513.34800354577601 ], [ 675053.659460814320482, 5922519.73178552556783 ], [ 675048.884702940005809, 5922524.872623849660158 ], [ 675035.485282757552341, 5922516.873689003288746 ], [ 675032.014114571036771, 5922522.463125983253121 ], [ 675054.040725976112299, 5922540.526063565164804 ] ] ] ] } },
{ "type": "Feature", "properties": { "id": null }, "geometry": { "type": "MultiPolygon", "coordinates": [ [ [ [ 674941.70119817124214, 5922543.003251196816564 ], [ 674941.48523400654085, 5922545.543894371017814 ], [ 674947.668133051600307, 5922560.397432375699282 ], [ 674957.306478759972379, 5922565.198893994092941 ], [ 674979.369094411260448, 5922557.69926174916327 ], [ 674978.499790765810758, 5922555.601650722324848 ], [ 674985.297473588259891, 5922553.252585090696812 ], [ 674985.861863670987077, 5922553.146975116804242 ], [ 675001.478138342848979, 5922548.490721599198878 ], [ 675006.432049359893426, 5922538.943124952726066 ], [ 675000.663185946177691, 5922530.283545883372426 ], [ 674998.36818977270741, 5922528.788090262562037 ], [ 674985.971904403995723, 5922522.872311612591147 ], [ 674981.208839053753763, 5922520.294752515852451 ], [ 674976.558711588615552, 5922520.390238279476762 ], [ 674970.944682275759988, 5922530.183270029723644 ], [ 674960.798723271815106, 5922534.339467036537826 ], [ 674951.685035297530703, 5922536.009384533390403 ], [ 674945.396002265624702, 5922544.631039621308446 ], [ 674941.70119817124214, 5922543.003251196816564 ] ] ] ] } },
{ "type": "Feature", "properties": { "id": null }, "geometry": { "type": "MultiPolygon", "coordinates": [ [ [ [ 674954.563352249911986, 5922511.285691631026566 ], [ 674958.113163553876802, 5922513.53143420163542 ], [ 674957.039554535178468, 5922516.396921830251813 ], [ 674958.923843430122361, 5922517.044583275914192 ], [ 674956.051181292394176, 5922523.168910697102547 ], [ 674961.835157308494672, 5922527.282370420172811 ], [ 674965.025630154181272, 5922527.409236578270793 ], [ 674969.961758862249553, 5922518.458711202256382 ], [ 674969.465709460200742, 5922514.29098457377404 ], [ 674956.283930782228708, 5922507.559834066778421 ], [ 674954.563352249911986, 5922511.285691631026566 ] ] ] ] } },
{ "type": "Feature", "properties": { "id": null }, "geometry": { "type": "MultiPolygon", "coordinates": [ [ [ [ 674988.836517848423682, 5922403.160647992044687 ], [ 674984.475404398515821, 5922400.951557011343539 ], [ 674979.613338163821027, 5922401.615442140027881 ], [ 674975.872004288714379, 5922409.561738129705191 ], [ 674968.276745672337711, 5922424.740113974548876 ], [ 674965.818435256602243, 5922429.500151119194925 ], [ 674962.03476364328526, 5922434.304996663704515 ], [ 674946.105562585522421, 5922451.413129299879074 ], [ 674943.396299547282979, 5922457.641772299073637 ], [ 674937.890655954368412, 5922469.737906884402037 ], [ 674932.845419783145189, 5922481.743439106270671 ], [ 674928.011113208835013, 5922489.384542202576995 ], [ 674929.676718539209105, 5922491.29365599155426 ], [ 674945.021305578062311, 5922498.104305219836533 ], [ 674988.836517848423682, 5922403.160647992044687 ] ] ] ] } },
{ "type": "Feature", "properties": { "id": null }, "geometry": { "type": "MultiPolygon", "coordinates": [ [ [ [ 674970.142712097149342, 5922478.056324737146497 ], [ 674957.732784503139555, 5922504.158183962106705 ], [ 674996.292626021197066, 5922523.871778206899762 ], [ 675000.917372888419777, 5922520.267886759713292 ], [ 675003.872478212928399, 5922511.629853434860706 ], [ 674978.005655402084813, 5922488.757785520516336 ], [ 674972.429841582197696, 5922481.376560499891639 ], [ 674970.142712097149342, 5922478.056324737146497 ] ] ] ] } },
{ "type": "Feature", "properties": { "id": null }, "geometry": { "type": "MultiPolygon", "coordinates": [ [ [ [ 675175.844484846806154, 5921988.255721436813474 ], [ 675069.506920991232619, 5922212.039621938019991 ], [ 675105.273873094236478, 5922228.93442565575242 ], [ 675209.895585753023624, 5922004.494263390079141 ], [ 675175.844484846806154, 5921988.255721436813474 ] ] ] ] } },
{ "type": "Feature", "properties": { "id": null }, "geometry": { "type": "MultiPolygon", "coordinates": [ [ [ [ 675112.418328346335329, 5921951.843055967241526 ], [ 675147.512740483740345, 5921968.773378061130643 ], [ 675153.717720299377106, 5921970.125449258834124 ], [ 675163.10214809468016, 5921974.177734856493771 ], [ 675196.006579997134395, 5921904.097429214045405 ], [ 675196.742759592249058, 5921903.333637004718184 ], [ 675195.055372928269207, 5921900.498497388325632 ], [ 675112.418328346335329, 5921951.843055967241526 ] ] ] ] } },
{ "type": "Feature", "properties": { "id": null }, "geometry": { "type": "MultiPolygon", "coordinates": [ [ [ [ 675127.67052798718214, 5922049.621829671785235 ], [ 675113.232442530570552, 5922042.494014702737331 ], [ 675110.823415216291323, 5922047.547710861079395 ], [ 675100.907602333230898, 5922068.195165649056435 ], [ 675094.755137170897797, 5922081.38765315618366 ], [ 675072.347876445506699, 5922128.268478209152818 ], [ 675062.102549555012956, 5922149.629968579858541 ], [ 675078.30266746156849, 5922154.121713406406343 ], [ 675127.67052798718214, 5922049.621829671785235 ] ] ] ] } },
{ "type": "Feature", "properties": { "id": null }, "geometry": { "type": "MultiPolygon", "coordinates": [ [ [ [ 675117.942531963228248, 5922035.156693847849965 ], [ 675132.893299293122254, 5922042.134503942914307 ], [ 675158.012693229597062, 5921978.772506266832352 ], [ 675151.271324950503185, 5921975.450549248605967 ], [ 675108.445472260355018, 5921955.362800914794207 ], [ 675100.340150287374854, 5921959.556354099884629 ], [ 675091.596164256567135, 5921965.074753418564796 ], [ 675084.954506499227136, 5921970.131527127698064 ], [ 675079.796098143444397, 5921974.84541888255626 ], [ 675092.227849605027586, 5921981.190900748595595 ], [ 675096.555655576870777, 5921971.704709755256772 ], [ 675138.209178595105186, 5921990.649845628067851 ], [ 675117.942531963228248, 5922035.156693847849965 ] ] ] ] } },
{ "type": "Feature", "properties": { "id": null }, "geometry": { "type": "MultiPolygon", "coordinates": [ [ [ [ 675063.19468015502207, 5922389.661618990823627 ], [ 675061.001740674022585, 5922393.213892739266157 ], [ 675060.938091777847148, 5922397.370491071604192 ], [ 675060.539939617039636, 5922414.264111045747995 ], [ 675063.672889002715237, 5922428.678035642951727 ], [ 675067.846866078092717, 5922445.834505802951753 ], [ 675087.538391214096919, 5922454.76734902150929 ], [ 675097.563025197014213, 5922431.862174963578582 ], [ 675099.350785682210699, 5922430.715571912005544 ], [ 675102.980448644375429, 5922431.057186251506209 ], [ 675109.937694573658518, 5922415.385613355785608 ], [ 675109.649206970352679, 5922411.662654560059309 ], [ 675107.993504043668509, 5922410.648620737716556 ], [ 675063.19468015502207, 5922389.661618990823627 ] ] ] ] } },
{ "type": "Feature", "properties": { "id": null }, "geometry": { "type": "MultiPolygon", "coordinates": [ [ [ [ 675057.702779407729395, 5922467.014691729098558 ], [ 675065.291779333958402, 5922451.115102706477046 ], [ 675061.832082354463637, 5922435.041835645213723 ], [ 675059.896421477664262, 5922441.270940854214132 ], [ 675058.661568503128365, 5922445.38263595290482 ], [ 675056.584976074751467, 5922450.914973316714168 ], [ 675051.413917549420148, 5922464.090109821408987 ], [ 675057.702779407729395, 5922467.014691729098558 ] ] ] ] } },
{ "type": "Feature", "properties": { "id": null }, "geometry": { "type": "MultiPolygon", "coordinates": [ [ [ [ 675154.50057563954033, 5922298.888239572755992 ], [ 675153.013092862907797, 5922287.30732398852706 ], [ 675155.532074774615467, 5922278.052007788792253 ], [ 675161.555634102551267, 5922268.724657034501433 ], [ 675171.974336906685494, 5922256.133330792188644 ], [ 675190.653187946067192, 5922231.549391584470868 ], [ 675197.287983623566106, 5922222.567912074737251 ], [ 675202.339531211880967, 5922215.137837611138821 ], [ 675215.674608580535278, 5922199.41225662548095 ], [ 675219.777106158086099, 5922195.155879374593496 ], [ 675235.701889397925697, 5922168.80112611502409 ], [ 675240.805045795859769, 5922150.732601059600711 ], [ 675241.115619225660339, 5922146.957339750602841 ], [ 675242.430720116244629, 5922133.06427451595664 ], [ 675247.207278760964982, 5922119.853217840194702 ], [ 675258.782252685865387, 5922091.14812589250505 ], [ 675262.976124439621344, 5922087.27956834435463 ], [ 675270.382776646642014, 5922085.708850165829062 ], [ 675276.146348841604777, 5922088.899788185954094 ], [ 675288.257729773293249, 5922092.905704574659467 ], [ 675292.446303473436274, 5922089.107095289975405 ], [ 675296.631173799280077, 5922075.552666140720248 ], [ 675303.818808630923741, 5922064.931009721010923 ], [ 675305.518444344168529, 5922056.796171034686267 ], [ 675303.751501269871369, 5922051.304721400141716 ], [ 675282.387385630048811, 5922041.679472547024488 ], [ 675268.019871490891092, 5922038.914122628979385 ], [ 675254.250689902575687, 5922037.887628459371626 ], [ 675248.853338294778951, 5922045.436129121109843 ], [ 675247.814920281525701, 5922047.210447886027396 ], [ 675218.425077758030966, 5922108.31182749196887 ], [ 675184.051833241130225, 5922180.529752521775663 ], [ 675168.495191449881531, 5922213.613469270057976 ], [ 675149.383318767650053, 5922253.011222090572119 ], [ 675139.859815407078713, 5922274.849023835733533 ], [ 675137.905302366008982, 5922284.760705537162721 ], [ 675137.923445385880768, 5922285.643395189195871 ], [ 675139.720560087938793, 5922293.418168036267161 ], [ 675154.50057563954033, 5922298.888239572755992 ] ] ] ] } },
{ "type": "Feature", "properties": { "id": null }, "geometry": { "type": "MultiPolygon", "coordinates": [ [ [ [ 675011.511866099433973, 5922405.893321474082768 ], [ 675023.1986240016995, 5922411.304366420954466 ], [ 675043.857716491795145, 5922414.590083975344896 ], [ 675050.989883058471605, 5922420.444539098069072 ], [ 675053.228558319038711, 5922424.379698688164353 ], [ 675049.964479181333445, 5922433.436656854115427 ], [ 675043.1606452310225, 5922439.790514365769923 ], [ 675032.950954395812005, 5922440.690691266208887 ], [ 675024.501428678282537, 5922446.01288347132504 ], [ 675016.315860995906405, 5922442.472594847902656 ], [ 675015.628195358789526, 5922440.07142467610538 ], [ 675017.618736001313664, 5922429.598805533722043 ], [ 675017.59811476804316, 5922419.470070460811257 ], [ 675007.206962279044092, 5922414.96149012632668 ], [ 675006.296656942809932, 5922412.417106963694096 ], [ 675001.774752410594374, 5922410.42154229618609 ], [ 674989.663773580919951, 5922436.168579557910562 ], [ 675007.242433946114033, 5922443.792778063565493 ], [ 675049.068118148366921, 5922462.898336314596236 ], [ 675055.182952045230195, 5922447.321408496238291 ], [ 675059.523696924326941, 5922431.81487743370235 ], [ 675060.358602330787107, 5922427.625297867693007 ], [ 675058.204265962587669, 5922412.390875129029155 ], [ 675058.539099744870327, 5922399.700387878343463 ], [ 675058.187417090288363, 5922384.249937149696052 ], [ 675027.038836511317641, 5922369.769536367617548 ], [ 675026.33441365568433, 5922371.130265947431326 ], [ 675021.496013511205092, 5922368.70541032589972 ], [ 675009.417518103844486, 5922394.512957519851625 ], [ 675004.375938246841542, 5922405.094084864482284 ], [ 675009.163933906005695, 5922406.959428085014224 ], [ 675011.511866099433973, 5922405.893321474082768 ] ] ] ] } },
{ "type": "Feature", "properties": { "id": null }, "geometry": { "type": "MultiPolygon", "coordinates": [ [ [ [ 675054.91890122264158, 5922372.273637659847736 ], [ 675052.827896788949147, 5922375.248951148241758 ], [ 675062.071018876042217, 5922379.484457788988948 ], [ 675063.546575888758525, 5922376.272683415561914 ], [ 675076.332308916025795, 5922382.36796045769006 ], [ 675074.812869095359929, 5922385.484581178054214 ], [ 675077.846548180910759, 5922386.955944566056132 ], [ 675079.557756596826948, 5922383.743147986009717 ], [ 675092.355229152715765, 5922389.69684829749167 ], [ 675090.718575861072168, 5922392.959034777246416 ], [ 675099.278099864372052, 5922396.974092807620764 ], [ 675100.893042579642497, 5922393.777112895622849 ], [ 675106.598910763976164, 5922396.541199816390872 ], [ 675123.911953723873012, 5922360.295046089217067 ], [ 675076.726715165190399, 5922341.970587912015617 ], [ 675070.519673833390698, 5922354.51606809720397 ], [ 675063.434597217012197, 5922368.39798504114151 ], [ 675057.937115071457811, 5922367.57008214853704 ], [ 675054.91890122264158, 5922372.273637659847736 ] ] ] ] } },
{ "type": "Feature", "properties": { "id": null }, "geometry": { "type": "MultiPolygon", "coordinates": [ [ [ [ 675150.64833053573966, 5922361.290352396667004 ], [ 675198.992417511180975, 5922384.680997403338552 ], [ 675200.125421817996539, 5922382.647158632054925 ], [ 675200.221240231301636, 5922381.950637310743332 ], [ 675211.405172140104696, 5922386.037707852199674 ], [ 675216.562465361901559, 5922380.485275875777006 ], [ 675213.02549819345586, 5922369.889918999746442 ], [ 675209.070285018067807, 5922366.110419970937073 ], [ 675205.626448814873584, 5922364.203735491260886 ], [ 675164.658777307486162, 5922345.756982859224081 ], [ 675159.245398697559722, 5922343.373690162785351 ], [ 675156.894711188739166, 5922348.029636197723448 ], [ 675150.64833053573966, 5922361.290352396667004 ] ] ] ] } },
{ "type": "Feature", "properties": { "id": null }, "geometry": { "type": "MultiPolygon", "coordinates": [ [ [ [ 675233.253680152702145, 5922381.45163700170815 ], [ 675251.001804653322324, 5922376.487168515101075 ], [ 675246.603429935406893, 5922373.73585563711822 ], [ 675248.754537618020549, 5922365.530938471667469 ], [ 675248.913915039971471, 5922365.056095319800079 ], [ 675254.936903967405669, 5922354.040649085305631 ], [ 675255.093578912084922, 5922345.699442057870328 ], [ 675254.946347404737025, 5922341.255403976887465 ], [ 675253.223055165144615, 5922338.174977850168943 ], [ 675249.73933827644214, 5922333.258025391027331 ], [ 675242.429735050187446, 5922329.481405967846513 ], [ 675234.050022679381073, 5922330.74561607465148 ], [ 675230.246561120031402, 5922331.538994948379695 ], [ 675223.65395906358026, 5922333.234918491914868 ], [ 675224.947496519889683, 5922339.804921049624681 ], [ 675214.61786134634167, 5922360.990240469574928 ], [ 675220.555735319852829, 5922384.036717042326927 ], [ 675233.253680152702145, 5922381.45163700170815 ] ] ] ] } },
{ "type": "Feature", "properties": { "id": null }, "geometry": { "type": "MultiPolygon", "coordinates": [ [ [ [ 674981.381212927517481, 5922176.385483698919415 ], [ 674971.123425294645131, 5922196.39540546759963 ], [ 674972.449807226425037, 5922198.896638942882419 ], [ 674979.448858129791915, 5922215.524957938119769 ], [ 675039.72057999833487, 5922243.03510463796556 ], [ 675045.890458904905245, 5922229.040562150999904 ], [ 675032.213748413370922, 5922222.765847880393267 ], [ 675036.104999978328124, 5922214.102993888780475 ], [ 675049.737936382181942, 5922221.137711672112346 ], [ 675054.822941018966958, 5922210.720592861063778 ], [ 674981.381212927517481, 5922176.385483698919415 ] ] ] ] } },
{ "type": "Feature", "properties": { "id": null }, "geometry": { "type": "MultiPolygon", "coordinates": [ [ [ [ 674929.737228893325664, 5922375.504951133392751 ], [ 674918.509205733891577, 5922369.372362347319722 ], [ 674921.564715901156887, 5922364.087928209453821 ], [ 674929.220763491117395, 5922367.62410940695554 ], [ 674931.371432422427461, 5922367.9903299883008 ], [ 674932.607344650430605, 5922367.964957285672426 ], [ 674935.008429735782556, 5922364.468536073341966 ], [ 674936.341758303809911, 5922361.158185491338372 ], [ 674937.398795455577783, 5922353.522052559070289 ], [ 674937.178932451526634, 5922349.716307571157813 ], [ 674933.715017709881067, 5922343.225313628092408 ], [ 674910.334171185153536, 5922332.86219235509634 ], [ 674910.833929073880427, 5922329.990994650870562 ], [ 674906.165921761654317, 5922328.100052392110229 ], [ 674898.338932256214321, 5922344.214385512284935 ], [ 674881.35252507776022, 5922378.962491977028549 ], [ 674898.435740589862689, 5922386.752840311266482 ], [ 674903.041438278043643, 5922388.9646878503263 ], [ 674906.273814848158509, 5922389.510972557589412 ], [ 674926.966493298299611, 5922379.664429266005754 ], [ 674929.737228893325664, 5922375.504951133392751 ] ] ] ] } },
{ "type": "Feature", "properties": { "id": null }, "geometry": { "type": "MultiPolygon", "coordinates": [ [ [ [ 674971.938263254822232, 5922325.131537651643157 ], [ 674974.615893837762997, 5922319.599852069281042 ], [ 674971.628172548022121, 5922318.026368470862508 ], [ 674973.192194466828369, 5922314.234131349250674 ], [ 674928.927104927832261, 5922293.62810811214149 ], [ 674926.105741830542684, 5922292.755563570186496 ], [ 674924.948869953397661, 5922293.302700279280543 ], [ 674908.101655911770649, 5922324.492359163239598 ], [ 674916.266418307903223, 5922328.759853807277977 ], [ 674925.989473846973851, 5922333.513749204576015 ], [ 674929.744770237826742, 5922336.030463459901512 ], [ 674933.630127999931574, 5922339.461450519040227 ], [ 674936.846961608156562, 5922344.114782937802374 ], [ 674939.136367187835276, 5922347.539798534475267 ], [ 674940.021468374063261, 5922352.893701801076531 ], [ 674938.468838272849098, 5922362.717909224331379 ], [ 674942.387206151382998, 5922359.245206031948328 ], [ 674943.669256961904466, 5922358.370820365846157 ], [ 674948.239773734938353, 5922357.110672455281019 ], [ 674955.854852546937764, 5922355.569986114278436 ], [ 674960.204227559501305, 5922354.745497215539217 ], [ 674970.266091829515062, 5922351.603379514068365 ], [ 674974.992299873847514, 5922347.677402066998184 ], [ 674971.32976771867834, 5922344.618252879939973 ], [ 674968.14037024602294, 5922343.079547964036465 ], [ 674956.696051683044061, 5922320.087420903146267 ], [ 674942.638075539842248, 5922308.755897182971239 ], [ 674937.857497986289673, 5922310.737802749499679 ], [ 674935.5059168797452, 5922315.100492216646671 ], [ 674931.30383426125627, 5922323.991033054888248 ], [ 674929.404756412142888, 5922327.595389233902097 ], [ 674932.265616953023709, 5922331.684128478169441 ], [ 674940.751060152077116, 5922333.1937111094594 ], [ 674960.873500600457191, 5922336.819162851199508 ], [ 674971.938263254822232, 5922325.131537651643157 ] ] ] ] } },
{ "type": "Feature", "properties": { "id": null }, "geometry": { "type": "MultiPolygon", "coordinates": [ [ [ [ 674943.322200313443318, 5922254.450890744104981 ], [ 674929.273845807416365, 5922282.844928972423077 ], [ 674931.538992167683318, 5922287.847198735922575 ], [ 674941.707994126016274, 5922292.835692665539682 ], [ 674950.215100156608969, 5922274.990321930497885 ], [ 674954.018357973196544, 5922260.267044654116035 ], [ 674943.322200313443318, 5922254.450890744104981 ] ] ] ] } },
{ "type": "Feature", "properties": { "id": null }, "geometry": { "type": "MultiPolygon", "coordinates": [ [ [ [ 675122.792327132658102, 5922336.413281699642539 ], [ 675121.420746516669169, 5922338.847826285287738 ], [ 675120.086967571289279, 5922343.121749777346849 ], [ 675121.876516373013146, 5922347.189934679307044 ], [ 675124.187946650781669, 5922348.982586679980159 ], [ 675125.893167244852521, 5922348.94754046574235 ], [ 675130.579222773900256, 5922341.773705510422587 ], [ 675131.66659825888928, 5922339.344999771565199 ], [ 675131.59971246519126, 5922336.090716311708093 ], [ 675132.098324368475005, 5922332.683261014521122 ], [ 675130.172487952047959, 5922328.9009865000844 ], [ 675127.179634853731841, 5922328.53784760646522 ], [ 675124.123195548541844, 5922331.997870494611561 ], [ 675122.792327132658102, 5922336.413281699642539 ] ] ] ] } },
{ "type": "Feature", "properties": { "id": null }, "geometry": { "type": "MultiPolygon", "coordinates": [ [ [ [ 675137.167702900944278, 5922354.865990987047553 ], [ 675141.157757388427854, 5922351.883165357634425 ], [ 675143.518000273499638, 5922347.120830866508186 ], [ 675144.21796033764258, 5922343.525754036381841 ], [ 675144.066425981465727, 5922340.582732963375747 ], [ 675140.697441760217771, 5922340.561330089345574 ], [ 675140.773673963383771, 5922342.05549350194633 ], [ 675138.495925637660548, 5922344.187268285080791 ], [ 675138.293560130055994, 5922345.415207497775555 ], [ 675138.368860690272413, 5922346.864065709523857 ], [ 675134.372416170896031, 5922351.750678477808833 ], [ 675134.195192008744925, 5922354.201882887631655 ], [ 675137.167702900944278, 5922354.865990987047553 ] ] ] ] } },
{ "type": "Feature", "properties": { "id": null }, "geometry": { "type": "MultiPolygon", "coordinates": [ [ [ [ 675091.892876824946143, 5922302.307563683018088 ], [ 675101.190260059433058, 5922322.34812263213098 ], [ 675108.600357748451643, 5922341.576447416096926 ], [ 675109.605319243855774, 5922341.128569639287889 ], [ 675112.57791798026301, 5922337.727355936542153 ], [ 675116.187915725982748, 5922334.973299814388156 ], [ 675127.628247154178098, 5922311.522516561672091 ], [ 675124.584731070441194, 5922307.573587503284216 ], [ 675107.82429266278632, 5922303.300970384851098 ], [ 675114.794202029006556, 5922288.845357383601367 ], [ 675112.015507136122324, 5922287.220312483608723 ], [ 675111.871088296873495, 5922285.330861183814704 ], [ 675102.431122317211702, 5922280.68867808021605 ], [ 675098.538962348597124, 5922281.399467492476106 ], [ 675089.099124297150411, 5922300.987604022026062 ], [ 675091.892876824946143, 5922302.307563683018088 ] ] ] ] } },
{ "type": "Feature", "properties": { "id": null }, "geometry": { "type": "MultiPolygon", "coordinates": [ [ [ [ 675115.264025936368853, 5922236.082757111638784 ], [ 675105.860028757248074, 5922256.096778180450201 ], [ 675107.473499823012389, 5922261.212812950834632 ], [ 675112.306936170556583, 5922280.328411831520498 ], [ 675122.50927519693505, 5922285.244753716513515 ], [ 675136.547108727041632, 5922255.863073805347085 ], [ 675133.102468241471797, 5922254.484009769745171 ], [ 675121.804575957590714, 5922243.824416568502784 ], [ 675123.681710856268182, 5922239.660124978981912 ], [ 675115.264025936368853, 5922236.082757111638784 ] ] ] ] } },
{ "type": "Feature", "properties": { "id": null }, "geometry": { "type": "MultiPolygon", "coordinates": [ [ [ [ 675097.784862285829149, 5922273.492325566709042 ], [ 675110.386327327811159, 5922279.541209886781871 ], [ 675104.617074657697231, 5922258.399080643430352 ], [ 675097.784862285829149, 5922273.492325566709042 ] ] ] ] } },
{ "type": "Feature", "properties": { "id": null }, "geometry": { "type": "MultiPolygon", "coordinates": [ [ [ [ 674993.147930144798011, 5922315.960652931593359 ], [ 674996.701513023115695, 5922304.780017225071788 ], [ 674991.195388993714005, 5922297.2713145269081 ], [ 675002.821646537515335, 5922289.965004112571478 ], [ 675012.188056515878998, 5922279.676686614751816 ], [ 674996.53967110614758, 5922271.866272607818246 ], [ 674997.485150974243879, 5922269.882906850427389 ], [ 674988.518226351006888, 5922265.4517887160182 ], [ 674987.43768623098731, 5922260.858707047998905 ], [ 674990.650302415830083, 5922254.017121251672506 ], [ 674972.161592232529074, 5922241.972829250618815 ], [ 674959.523768264916725, 5922262.123392262496054 ], [ 674953.843516316730529, 5922285.737482335418463 ], [ 674949.129835211089812, 5922294.908635281957686 ], [ 674950.841172344749793, 5922297.554563564248383 ], [ 674975.360405899351463, 5922309.276873136870563 ], [ 674986.878444265224971, 5922312.902842994779348 ], [ 674993.147930144798011, 5922315.960652931593359 ] ] ] ] } },
{ "type": "Feature", "properties": { "id": null }, "geometry": { "type": "MultiPolygon", "coordinates": [ [ [ [ 675008.350145321106538, 5922161.244258460588753 ], [ 674993.111879876931198, 5922153.985928878188133 ], [ 674984.212698712013662, 5922171.913959658704698 ], [ 675001.610574273974635, 5922180.192684231325984 ], [ 675008.350145321106538, 5922161.244258460588753 ] ] ] ] } },
{ "type": "Feature", "properties": { "id": null }, "geometry": { "type": "MultiPolygon", "coordinates": [ [ [ [ 675013.856777994893491, 5922150.757571706548333 ], [ 675021.892836195416749, 5922133.476406243629754 ], [ 675006.766375667997636, 5922125.825074788182974 ], [ 674997.853608394856565, 5922143.386940248310566 ], [ 675013.856777994893491, 5922150.757571706548333 ] ] ] ] } },
{ "type": "Feature", "properties": { "id": null }, "geometry": { "type": "MultiPolygon", "coordinates": [ [ [ [ 675026.270473195123486, 5922123.689023459330201 ], [ 675055.025503670331091, 5922118.597799677401781 ], [ 675062.186281038448215, 5922094.369684444740415 ], [ 675062.068390438100323, 5922105.761279104277492 ], [ 675060.718334065051749, 5922100.006820956245065 ], [ 675046.811579959350638, 5922093.037623144686222 ], [ 675044.923427057918161, 5922092.831742074340582 ], [ 675040.333394700428471, 5922092.681368692778051 ], [ 675035.917649601702578, 5922099.033333634957671 ], [ 675034.561587797128595, 5922105.981019666418433 ], [ 675030.774016449344344, 5922105.54577561467886 ], [ 675034.361280412296765, 5922091.864895990118384 ], [ 675033.727414056891575, 5922087.891408282332122 ], [ 675030.445653694681823, 5922087.752627294510603 ], [ 675022.743778603151441, 5922090.866358338855207 ], [ 675010.223292730515823, 5922116.483791049569845 ], [ 675026.270473195123486, 5922123.689023459330201 ] ] ] ] } },
{ "type": "Feature", "properties": { "id": null }, "geometry": { "type": "MultiPolygon", "coordinates": [ [ [ [ 675061.396645187051035, 5922094.428891684859991 ], [ 675068.107122024404816, 5922080.737860568799078 ], [ 675054.995615565218031, 5922076.119242147542536 ], [ 675048.781232482986525, 5922088.615086977370083 ], [ 675061.396645187051035, 5922094.428891684859991 ] ] ] ] } },
{ "type": "Feature", "properties": { "id": null }, "geometry": { "type": "MultiPolygon", "coordinates": [ [ [ [ 675048.012151406845078, 5922072.2575589325279 ], [ 675057.759527460671961, 5922056.608588315546513 ], [ 675060.493167064036243, 5922049.337000561878085 ], [ 675053.718381635379046, 5922045.752112014219165 ], [ 675047.590599515708163, 5922043.317703226581216 ], [ 675045.722900458029471, 5922043.433660494163632 ], [ 675039.273150603636168, 5922055.669448208063841 ], [ 675035.037037332076579, 5922064.285706931725144 ], [ 675031.25007545191329, 5922072.22986376658082 ], [ 675036.113423871109262, 5922075.10641616769135 ], [ 675038.632168976007961, 5922075.586182663217187 ], [ 675044.505799524253234, 5922073.07371224090457 ], [ 675048.012151406845078, 5922072.2575589325279 ] ] ] ] } },
{ "type": "Feature", "properties": { "id": null }, "geometry": { "type": "MultiPolygon", "coordinates": [ [ [ [ 675076.66709718410857, 5921979.873374124057591 ], [ 675071.929947180557065, 5921986.463647511787713 ], [ 675069.066227627685294, 5921991.002921121194959 ], [ 675066.487133802263997, 5921996.880477296188474 ], [ 675058.653148085577413, 5922013.358987346291542 ], [ 675070.699271552613936, 5922017.79789537191391 ], [ 675108.710559642524458, 5922031.806011114269495 ], [ 675110.426349381101318, 5922034.184901637025177 ], [ 675112.760218630894087, 5922033.457952945493162 ], [ 675117.038002989022061, 5922024.090628257021308 ], [ 675080.663902059779502, 5922006.726330352947116 ], [ 675090.146238340996206, 5921986.008884130045772 ], [ 675076.66709718410857, 5921979.873374124057591 ] ] ] ] } },
{ "type": "Feature", "properties": { "id": null }, "geometry": { "type": "MultiPolygon", "coordinates": [ [ [ [ 675105.49312271294184, 5922040.61262325476855 ], [ 675077.928410432185046, 5922034.041126810014248 ], [ 675059.431852276436985, 5922020.835596017539501 ], [ 675055.956567018525675, 5922019.41663212608546 ], [ 675047.365051220054738, 5922038.206084325909615 ], [ 675048.702356991125271, 5922040.523574163205922 ], [ 675098.761103778728284, 5922063.693127186968923 ], [ 675109.668927766382694, 5922040.686659869737923 ], [ 675110.184635309036821, 5922038.438032872974873 ], [ 675108.971171437297016, 5922037.983395371586084 ], [ 675105.49312271294184, 5922040.61262325476855 ] ] ] ] } },
{ "type": "Feature", "properties": { "id": null }, "geometry": { "type": "MultiPolygon", "coordinates": [ [ [ [ 675024.147461846354418, 5922088.395123390480876 ], [ 675028.228575704153627, 5922086.434071763418615 ], [ 675030.970798801048659, 5922085.460959084331989 ], [ 675034.153972314554267, 5922084.609755452722311 ], [ 675035.254007589188404, 5922082.666285933926702 ], [ 675035.331798660685308, 5922082.184470157139003 ], [ 675034.04549957672134, 5922079.329589796252549 ], [ 675029.479414066416211, 5922076.891336275264621 ], [ 675026.652428661007434, 5922082.275458749383688 ], [ 675024.147461846354418, 5922088.395123390480876 ] ] ] ] } },
{ "type": "Feature", "properties": { "id": null }, "geometry": { "type": "MultiPolygon", "coordinates": [ [ [ [ 675160.276472653611563, 5922184.3737837318331 ], [ 675162.695331614115275, 5922178.229857476428151 ], [ 675154.187582786427811, 5922174.120715605095029 ], [ 675158.511096518835984, 5922165.227802366018295 ], [ 675168.719884499092586, 5922144.529205773025751 ], [ 675171.384769150405191, 5922139.186743821948767 ], [ 675171.92513440689072, 5922139.080301219597459 ], [ 675187.362881217617542, 5922146.817808914929628 ], [ 675193.602975489920937, 5922132.626794105395675 ], [ 675174.106150602106936, 5922122.860923759639263 ], [ 675189.342332755913958, 5922089.754187217913568 ], [ 675183.963465726003051, 5922090.045515289530158 ], [ 675158.016758998157457, 5922145.22268433123827 ], [ 675145.184816341497935, 5922172.389488056302071 ], [ 675145.99740321142599, 5922175.175924570299685 ], [ 675153.742677510017529, 5922178.891282277181745 ], [ 675158.523217332898639, 5922181.009148232638836 ], [ 675160.276472653611563, 5922184.3737837318331 ] ] ] ] } },
{ "type": "Feature", "properties": { "id": null }, "geometry": { "type": "MultiPolygon", "coordinates": [ [ [ [ 675185.917665906483307, 5922085.287158559076488 ], [ 675192.441158601082861, 5922084.237586421892047 ], [ 675196.755044065881521, 5922083.601790314540267 ], [ 675201.717728893039748, 5922084.457156317308545 ], [ 675204.286954312468879, 5922079.138556217774749 ], [ 675195.202811736264266, 5922064.895796291530132 ], [ 675185.917665906483307, 5922085.287158559076488 ] ] ] ] } },
{ "type": "Feature", "properties": { "id": null }, "geometry": { "type": "MultiPolygon", "coordinates": [ [ [ [ 675236.52987762761768, 5922016.35215962305665 ], [ 675222.064997113426216, 5922009.282643116079271 ], [ 675206.91925793106202, 5922040.540664965286851 ], [ 675197.024104876210913, 5922061.111701622605324 ], [ 675201.648730335757136, 5922067.787892626598477 ], [ 675207.685675822896883, 5922069.966566357761621 ], [ 675208.917773897526786, 5922073.688158312812448 ], [ 675202.769375004339963, 5922087.509751818142831 ], [ 675213.192897583823651, 5922092.276968732476234 ], [ 675220.977699007373303, 5922076.554460216313601 ], [ 675215.102375587448478, 5922069.318966025486588 ], [ 675213.409935145638883, 5922062.615813940763474 ], [ 675236.52987762761768, 5922016.35215962305665 ] ] ] ] } },
{ "type": "Feature", "properties": { "id": null }, "geometry": { "type": "MultiPolygon", "coordinates": [ [ [ [ 675232.423576470813714, 5921999.915463717654347 ], [ 675243.893160022911616, 5922005.212596255354583 ], [ 675247.325414592400193, 5921996.764101532287896 ], [ 675233.006580554530956, 5921990.924801858142018 ], [ 675229.9508036384359, 5921992.109689077362418 ], [ 675224.267513351514935, 5922004.344599489122629 ], [ 675238.915958157042041, 5922011.598396793939173 ], [ 675243.242186333518475, 5922010.088162075728178 ], [ 675280.411110817105509, 5922027.271045677363873 ], [ 675299.06944210967049, 5922036.082319627515972 ], [ 675361.897506576497108, 5922065.19392210803926 ], [ 675361.684538888162933, 5922063.819209642708302 ], [ 675332.971315851667896, 5922050.527254002168775 ], [ 675299.59510120539926, 5922035.006069504655898 ], [ 675301.037731489865109, 5922031.540642628446221 ], [ 675277.812640641117468, 5922020.827515529468656 ], [ 675278.959218417294323, 5922017.687400712631643 ], [ 675265.910172627307475, 5922011.853307753801346 ], [ 675264.874501421349123, 5922014.234599106945097 ], [ 675254.002884524292313, 5922009.463780730031431 ], [ 675255.311163733829744, 5922006.690781279467046 ], [ 675249.130422355141491, 5922003.979698611423373 ], [ 675247.573543063364923, 5922007.001383542083204 ], [ 675232.423576470813714, 5921999.915463717654347 ] ] ] ] } },
{ "type": "Feature", "properties": { "id": null }, "geometry": { "type": "MultiPolygon", "coordinates": [ [ [ [ 675363.61604147113394, 5922054.19045334123075 ], [ 675347.264064794871956, 5922046.498055392876267 ], [ 675360.881025460548699, 5922017.899467663839459 ], [ 675356.73199198115617, 5922016.420054115355015 ], [ 675346.932259385241196, 5922036.954710183665156 ], [ 675345.972735027316958, 5922038.917116520926356 ], [ 675344.887625003815629, 5922038.332367385737598 ], [ 675338.073030543979257, 5922052.809326691552997 ], [ 675361.743864849209785, 5922063.772360138595104 ], [ 675361.845439167344011, 5922065.230853389948606 ], [ 675362.963609488448128, 5922065.670951148495078 ], [ 675365.509354911511764, 5922065.939169950783253 ], [ 675367.579041230026633, 5922063.937250543385744 ], [ 675383.239538970519789, 5922028.889009773731232 ], [ 675377.190089200506918, 5922026.100580061785877 ], [ 675363.61604147113394, 5922054.19045334123075 ] ] ] ] } },
{ "type": "Feature", "properties": { "id": null }, "geometry": { "type": "MultiPolygon", "coordinates": [ [ [ [ 675371.751106396201067, 5921984.135362397879362 ], [ 675384.977254321682267, 5921956.283245820552111 ], [ 675376.231237050611526, 5921950.008116230368614 ], [ 675385.477039242396131, 5921930.631827803328633 ], [ 675356.409503067960031, 5921918.160828829742968 ], [ 675339.136034561204724, 5921955.223694887012243 ], [ 675329.544231036910787, 5921951.4185835365206 ], [ 675325.93207163491752, 5921951.693042545579374 ], [ 675321.093501010909677, 5921955.709573995321989 ], [ 675321.720475240726955, 5921958.783767864108086 ], [ 675367.32033706526272, 5921978.925332022830844 ], [ 675366.020908667705953, 5921981.58455552905798 ], [ 675371.751106396201067, 5921984.135362397879362 ] ] ] ] } },
{ "type": "Feature", "properties": { "id": null }, "geometry": { "type": "MultiPolygon", "coordinates": [ [ [ [ 675338.955074798082933, 5921941.714833967387676 ], [ 675356.108593351324089, 5921903.889016144908965 ], [ 675350.717494049342349, 5921901.607029881328344 ], [ 675333.653515117941424, 5921939.252636938355863 ], [ 675338.955074798082933, 5921941.714833967387676 ] ] ] ] } },
{ "type": "Feature", "properties": { "id": null }, "geometry": { "type": "MultiPolygon", "coordinates": [ [ [ [ 675290.890028252848424, 5921928.902429299429059 ], [ 675317.904769884655252, 5921939.85955667309463 ], [ 675323.982185462722555, 5921941.706646012142301 ], [ 675327.968845202121884, 5921939.78177669364959 ], [ 675333.383719880250283, 5921927.774193285033107 ], [ 675338.212976012495346, 5921916.887402345426381 ], [ 675346.458304641884752, 5921898.650895551778376 ], [ 675335.117304060375318, 5921893.732361959293485 ], [ 675335.774666394223459, 5921891.993407618254423 ], [ 675326.864964248496108, 5921888.446959968656301 ], [ 675317.237661668332294, 5921888.818808576092124 ], [ 675304.137289531179704, 5921910.945589100942016 ], [ 675299.706859684665687, 5921918.594144627451897 ], [ 675290.890028252848424, 5921928.902429299429059 ] ] ] ] } },
{ "type": "Feature", "properties": { "id": null }, "geometry": { "type": "MultiPolygon", "coordinates": [ [ [ [ 675282.764379219035618, 5921919.066955281421542 ], [ 675286.666680373018607, 5921923.77659591846168 ], [ 675291.152887257747352, 5921921.968500080518425 ], [ 675298.101592514431104, 5921913.508857944980264 ], [ 675307.970405587460846, 5921896.469795763492584 ], [ 675321.651153494138271, 5921873.283925822935998 ], [ 675324.403818542137742, 5921869.56513968296349 ], [ 675309.99497222143691, 5921863.664182830601931 ], [ 675282.764379219035618, 5921919.066955281421542 ] ] ] ] } },
{ "type": "Feature", "properties": { "id": null }, "geometry": { "type": "MultiPolygon", "coordinates": [ [ [ [ 675319.305620207567699, 5921884.892743596807122 ], [ 675322.360857466235757, 5921884.426823629066348 ], [ 675326.408210638095625, 5921884.401112178340554 ], [ 675328.032600246719085, 5921884.655575117096305 ], [ 675343.324897644692101, 5921891.538148720748723 ], [ 675352.995415801648051, 5921870.394169358536601 ], [ 675360.134080896270461, 5921855.089967230334878 ], [ 675369.638745884643868, 5921834.666926240548491 ], [ 675373.59412660356611, 5921826.157561061903834 ], [ 675356.101284903008491, 5921819.063108096830547 ], [ 675353.404417556012049, 5921819.194334512576461 ], [ 675350.324534248444252, 5921821.037082286551595 ], [ 675346.935592157300562, 5921827.934044485911727 ], [ 675343.829773302772082, 5921830.972430419176817 ], [ 675337.575080898124725, 5921846.050797820091248 ], [ 675325.117132444516756, 5921875.861938265152276 ], [ 675319.305620207567699, 5921884.892743596807122 ] ] ] ] } },
{ "type": "Feature", "properties": { "id": null }, "geometry": { "type": "MultiPolygon", "coordinates": [ [ [ [ 675308.35760562599171, 5921818.072323130443692 ], [ 675328.054742962121964, 5921808.223486803472042 ], [ 675346.731174538843334, 5921810.487966513261199 ], [ 675356.041264872997999, 5921813.673635430634022 ], [ 675375.728132232092321, 5921820.859546268358827 ], [ 675384.002533689141273, 5921802.437870925292373 ], [ 675379.440405374392867, 5921800.336932614445686 ], [ 675356.988708989345469, 5921788.927593056112528 ], [ 675340.554279651725665, 5921781.271199192851782 ], [ 675338.813705001492053, 5921777.10533201880753 ], [ 675339.576366160181351, 5921773.958965455181897 ], [ 675341.907063481863588, 5921770.615555305033922 ], [ 675324.381175677292049, 5921785.698123257607222 ], [ 675304.695813292986713, 5921809.793052638880908 ], [ 675304.275704345898703, 5921814.007041733711958 ], [ 675308.35760562599171, 5921818.072323130443692 ] ] ] ] } },
{ "type": "Feature", "properties": { "id": null }, "geometry": { "type": "MultiPolygon", "coordinates": [ [ [ [ 675384.391634656931274, 5921787.115179020911455 ], [ 675389.426385874976404, 5921789.916585532948375 ], [ 675395.320266110124066, 5921777.728378405794501 ], [ 675399.074329069233499, 5921769.89241917617619 ], [ 675407.793680023401976, 5921751.324209436774254 ], [ 675413.836403343593702, 5921739.036862750537694 ], [ 675420.965221378137358, 5921724.093322589062154 ], [ 675421.329490916454233, 5921723.264113198965788 ], [ 675421.414369395934045, 5921722.675715940073133 ], [ 675420.367400956107304, 5921720.354840066283941 ], [ 675421.768528725020587, 5921717.092177708633244 ], [ 675417.4009413610911, 5921714.906177498400211 ], [ 675408.870518630021252, 5921733.87191972695291 ], [ 675399.412730971351266, 5921754.197675364091992 ], [ 675384.391634656931274, 5921787.115179020911455 ] ] ] ] } },
{ "type": "Feature", "properties": { "id": null }, "geometry": { "type": "MultiPolygon", "coordinates": [ [ [ [ 675448.125656843185425, 5921739.57552714087069 ], [ 675451.110154484398663, 5921731.718532158993185 ], [ 675429.601788111263886, 5921721.23316294606775 ], [ 675428.345273717190139, 5921724.17324947193265 ], [ 675425.298935239668936, 5921725.474519850686193 ], [ 675406.920257120742463, 5921764.475661158561707 ], [ 675394.958361633238383, 5921789.789658397436142 ], [ 675418.396225010394119, 5921801.069629218429327 ], [ 675405.278146733995527, 5921810.400223044678569 ], [ 675392.025301652145572, 5921804.21197397634387 ], [ 675389.734328023041598, 5921809.505967302247882 ], [ 675386.475310362293385, 5921808.326288607902825 ], [ 675380.444031203282066, 5921821.925508694723248 ], [ 675400.39137350441888, 5921830.94627000298351 ], [ 675404.586764266947284, 5921822.418721441179514 ], [ 675422.016490654787049, 5921830.087808989919722 ], [ 675427.073934469022788, 5921818.661418803036213 ], [ 675431.339435691013932, 5921813.012930024415255 ], [ 675440.301447402918711, 5921818.474585300311446 ], [ 675432.475506715476513, 5921834.804436 ], [ 675432.480050264159217, 5921835.108048179186881 ], [ 675441.933495581848547, 5921839.617515567690134 ], [ 675445.315878847148269, 5921832.337784445844591 ], [ 675460.950700921704993, 5921819.241960964165628 ], [ 675461.482960755703971, 5921839.062510610558093 ], [ 675463.474275928689167, 5921838.911173370666802 ], [ 675473.223582395119593, 5921823.163493851199746 ], [ 675475.448119890061207, 5921820.759044528007507 ], [ 675481.334552075248212, 5921817.043648598715663 ], [ 675464.6243674706202, 5921783.557515325024724 ], [ 675468.08054326090496, 5921777.152979101985693 ], [ 675473.265945888939314, 5921767.289300528354943 ], [ 675483.280292107490823, 5921747.321210007183254 ], [ 675462.648373809177428, 5921737.414712267927825 ], [ 675458.108235624968074, 5921745.25681116618216 ], [ 675449.69444844359532, 5921758.279022507369518 ], [ 675444.724984739790671, 5921768.791998844593763 ], [ 675439.01555514591746, 5921767.743583621457219 ], [ 675445.632807138492353, 5921751.949723662808537 ], [ 675448.125656843185425, 5921739.57552714087069 ] ] ] ] } },
{ "type": "Feature", "properties": { "id": null }, "geometry": { "type": "MultiPolygon", "coordinates": [ [ [ [ 675461.944426205242053, 5921849.172705929726362 ], [ 675465.116060212836601, 5921850.891811283305287 ], [ 675468.184357665712014, 5921850.701158398762345 ], [ 675476.417742523481138, 5921833.511291554197669 ], [ 675480.104583680978976, 5921828.38103548809886 ], [ 675484.618341178167611, 5921818.584498444572091 ], [ 675480.227079629315995, 5921822.118147517554462 ], [ 675477.323526478838176, 5921824.619494726881385 ], [ 675475.357525316998363, 5921826.851116282865405 ], [ 675469.91908618400339, 5921837.543153857812285 ], [ 675468.146777490270324, 5921840.021202381700277 ], [ 675465.063228240935132, 5921843.016887245699763 ], [ 675463.736796163138933, 5921844.630099887959659 ], [ 675461.944426205242053, 5921849.172705929726362 ] ] ] ] } },
{ "type": "Feature", "properties": { "id": null }, "geometry": { "type": "MultiPolygon", "coordinates": [ [ [ [ 675253.800953683909029, 5921956.796230489388108 ], [ 675263.538582599023357, 5921960.838885210454464 ], [ 675266.538983560400084, 5921961.042348248884082 ], [ 675276.394488461315632, 5921961.104785203933716 ], [ 675280.084724876796827, 5921959.238865459337831 ], [ 675283.588768928661011, 5921948.90754689835012 ], [ 675284.18213072931394, 5921947.66271619964391 ], [ 675284.930706169223413, 5921947.515248469077051 ], [ 675287.842220313381404, 5921949.348304141312838 ], [ 675291.965309778111987, 5921952.131724258884788 ], [ 675309.139182094484568, 5921959.507517863996327 ], [ 675316.597381666186266, 5921942.728550118394196 ], [ 675287.172946339007467, 5921930.560618164017797 ], [ 675279.523051464697346, 5921933.6405209004879 ], [ 675275.269027344649658, 5921932.572625380009413 ], [ 675266.140979758230969, 5921938.200266946107149 ], [ 675262.690269755898044, 5921942.680815951898694 ], [ 675260.51977202843409, 5921942.119150358252227 ], [ 675260.51977202843409, 5921942.119150358252227 ], [ 675260.51977202843409, 5921942.119150358252227 ], [ 675253.800953683909029, 5921956.796230489388108 ] ] ] ] } },
{ "type": "Feature", "properties": { "id": null }, "geometry": { "type": "MultiPolygon", "coordinates": [ [ [ [ 675076.283314389525913, 5922498.671797319315374 ], [ 675053.483110285596922, 5922488.260823955759406 ], [ 675047.210638140910305, 5922485.465495205484331 ], [ 675037.88747336238157, 5922487.688619463704526 ], [ 675031.831723748939112, 5922487.444149416871369 ], [ 675033.091023187269457, 5922482.623104696162045 ], [ 675039.320692770765163, 5922485.323066448792815 ], [ 675047.217547856969759, 5922479.013187966309488 ], [ 675049.338615050539374, 5922480.076195105910301 ], [ 675055.079958002781495, 5922468.397957282140851 ], [ 674988.199100997182541, 5922438.790606005117297 ], [ 674971.529866682947613, 5922475.156690033152699 ], [ 674976.701008292264305, 5922482.422816682606936 ], [ 674996.642728923819959, 5922500.711888695135713 ], [ 674999.149309590109624, 5922500.275068668648601 ], [ 675003.692565306089818, 5922495.364966688677669 ], [ 675004.043812498217449, 5922493.623706426471472 ], [ 675024.091733992099762, 5922505.202337968163192 ], [ 675041.655386527185328, 5922505.753409270197153 ], [ 675053.200714524602517, 5922510.531346612609923 ], [ 675057.615729307872243, 5922509.984730129130185 ], [ 675068.245684233377688, 5922514.781455338001251 ], [ 675076.283314389525913, 5922498.671797319315374 ] ] ] ] } },
{ "type": "Feature", "properties": { "id": null }, "geometry": { "type": "MultiPolygon", "coordinates": [ [ [ [ 675433.054205879103392, 5921704.613802360370755 ], [ 675446.375476563232951, 5921710.768607195466757 ], [ 675458.459171188762411, 5921686.544506295584142 ], [ 675444.639391963253729, 5921679.909968493506312 ], [ 675433.054205879103392, 5921704.613802360370755 ] ] ] ] } },
{ "type": "Feature", "properties": { "id": null }, "geometry": { "type": "MultiPolygon", "coordinates": [ [ [ [ 675530.899751558317803, 5921758.088620411232114 ], [ 675529.438269642181695, 5921748.734274990856647 ], [ 675532.269204802927561, 5921748.315006050281227 ], [ 675538.310165903880261, 5921754.146055230870843 ], [ 675543.652416683966294, 5921749.524219429120421 ], [ 675534.43499311292544, 5921739.749630636535585 ], [ 675525.414518845034763, 5921729.932617209851742 ], [ 675521.456734459730797, 5921727.457873100414872 ], [ 675511.555704914499074, 5921723.66071486659348 ], [ 675504.501283758785576, 5921722.583474991843104 ], [ 675491.362859480432235, 5921724.187843941152096 ], [ 675483.962089740671217, 5921725.603244125843048 ], [ 675481.379643622902222, 5921729.069589113816619 ], [ 675482.219095967244357, 5921732.245246352627873 ], [ 675511.267557083629072, 5921746.730794453062117 ], [ 675521.657928585656919, 5921752.025981461629272 ], [ 675530.899751558317803, 5921758.088620411232114 ] ] ] ] } },
{ "type": "Feature", "properties": { "id": null }, "geometry": { "type": "MultiPolygon", "coordinates": [ [ [ [ 675139.822159256553277, 5922383.946120776236057 ], [ 675144.298503077006899, 5922406.323798952624202 ], [ 675146.964009081595577, 5922416.364544507116079 ], [ 675157.563281955430284, 5922420.931674003601074 ], [ 675187.217205384396948, 5922434.415741302073002 ], [ 675197.952457895851694, 5922434.78162401355803 ], [ 675207.602026717271656, 5922414.058546559885144 ], [ 675212.068804072914645, 5922404.310477473773062 ], [ 675208.819106464041397, 5922402.625680141150951 ], [ 675177.428385653998703, 5922387.456715429201722 ], [ 675145.610219329944812, 5922372.230500919744372 ], [ 675139.822159256553277, 5922383.946120776236057 ] ] ] ] } },
{ "type": "Feature", "properties": { "id": null }, "geometry": { "type": "MultiPolygon", "coordinates": [ [ [ [ 675145.655318416655064, 5922419.146421147510409 ], [ 675115.714934845338576, 5922439.891041351482272 ], [ 675111.231231248821132, 5922449.172527337446809 ], [ 675108.351274108164944, 5922454.840795040130615 ], [ 675106.784288158174604, 5922460.243399819359183 ], [ 675107.319898383575492, 5922462.977267747744918 ], [ 675109.070740369614214, 5922466.521561053581536 ], [ 675117.64324088813737, 5922469.567641483619809 ], [ 675122.408562124008313, 5922468.156942501664162 ], [ 675127.738594450172968, 5922465.063840873539448 ], [ 675133.9692515025381, 5922458.05204738676548 ], [ 675166.8862492662156, 5922435.095881196670234 ], [ 675167.809916105587035, 5922432.266255609691143 ], [ 675167.395430140197277, 5922430.014046154916286 ], [ 675145.655318416655064, 5922419.146421147510409 ] ] ] ] } },
{ "type": "Feature", "properties": { "id": null }, "geometry": { "type": "MultiPolygon", "coordinates": [ [ [ [ 675200.728300780639984, 5922435.244457457214594 ], [ 675208.617875956464559, 5922435.092373257502913 ], [ 675229.165956429671496, 5922431.672529865987599 ], [ 675260.627823909278959, 5922426.089258445426822 ], [ 675214.758402553619817, 5922405.144425384700298 ], [ 675200.728300780639984, 5922435.244457457214594 ] ] ] ] } },
{ "type": "Feature", "properties": { "id": null }, "geometry": { "type": "MultiPolygon", "coordinates": [ [ [ [ 675177.728065507719293, 5922441.289297701790929 ], [ 675179.325010576169007, 5922452.516437020152807 ], [ 675187.154183514183387, 5922464.579106424935162 ], [ 675190.861812724499032, 5922465.31988650560379 ], [ 675201.940459777833894, 5922462.588761074468493 ], [ 675208.502139953197911, 5922453.698363402858377 ], [ 675200.562827848247252, 5922448.059893156401813 ], [ 675183.737601686269045, 5922441.481114817783237 ], [ 675177.728065507719293, 5922441.289297701790929 ] ] ] ] } },
{ "type": "Feature", "properties": { "id": null }, "geometry": { "type": "MultiPolygon", "coordinates": [ [ [ [ 675181.174349231063388, 5922437.011916508898139 ], [ 675190.499411212978885, 5922441.147235538810492 ], [ 675199.811489915824495, 5922445.237187938764691 ], [ 675212.978830624837428, 5922451.02839676849544 ], [ 675214.590953592443839, 5922461.319118311628699 ], [ 675213.320227230782621, 5922463.564249388873577 ], [ 675231.023804259020835, 5922467.090474601835012 ], [ 675253.329659155802801, 5922478.149769035167992 ], [ 675264.374866931000724, 5922484.075783943757415 ], [ 675281.123152934014797, 5922486.303304264321923 ], [ 675281.5450071208179, 5922494.908586530014873 ], [ 675283.962178286164999, 5922497.218337345868349 ], [ 675310.346243530046195, 5922506.328097512945533 ], [ 675322.721022827434354, 5922512.006151745095849 ], [ 675328.030800586100668, 5922515.125693302601576 ], [ 675334.633189003914595, 5922519.605095969513059 ], [ 675342.35561994719319, 5922527.497385403141379 ], [ 675356.225327996304259, 5922536.888791806995869 ], [ 675362.376584173529409, 5922540.882420962676406 ], [ 675375.862422074656934, 5922547.776779090985656 ], [ 675381.063501603668556, 5922547.42853478435427 ], [ 675381.894084477447905, 5922533.980012910440564 ], [ 675382.012671716162004, 5922529.500044893473387 ], [ 675386.795584029052407, 5922519.648872979916632 ], [ 675386.994610889581963, 5922503.004596842452884 ], [ 675374.100610455148853, 5922481.07272594422102 ], [ 675296.940536695881747, 5922444.601254923269153 ], [ 675265.130907997605391, 5922428.757733883336186 ], [ 675234.716069939313456, 5922433.654331248253584 ], [ 675208.805850660428405, 5922437.775031444616616 ], [ 675204.323660241672769, 5922438.146154592745006 ], [ 675195.520606498001143, 5922437.944759167730808 ], [ 675181.174349231063388, 5922437.011916508898139 ] ] ] ] } },
{ "type": "Feature", "properties": { "id": null }, "geometry": { "type": "MultiPolygon", "coordinates": [ [ [ [ 675299.356031669303775, 5922420.923392029479146 ], [ 675299.772268782486208, 5922432.804581247270107 ], [ 675315.614610799821094, 5922440.429999544285238 ], [ 675353.928941297228448, 5922407.314331391826272 ], [ 675344.879209615290165, 5922390.244099120609462 ], [ 675340.681181618478149, 5922389.083623817190528 ], [ 675338.416456558508798, 5922392.621435356326401 ], [ 675335.788873961078934, 5922394.753604559227824 ], [ 675322.596896825591102, 5922412.326090751215816 ], [ 675313.04108472482767, 5922415.77011576667428 ], [ 675307.847637678030878, 5922419.917076434008777 ], [ 675305.675296221976168, 5922417.725977577269077 ], [ 675302.927165721659549, 5922420.265890888869762 ], [ 675299.356031669303775, 5922420.923392029479146 ] ] ] ] } },
{ "type": "Feature", "properties": { "id": null }, "geometry": { "type": "MultiPolygon", "coordinates": [ [ [ [ 675244.261499698041007, 5922179.994468421675265 ], [ 675248.046846040058881, 5922176.901405183598399 ], [ 675250.902409250382334, 5922173.165901239030063 ], [ 675256.853216332034208, 5922165.707300620153546 ], [ 675257.560651789885014, 5922164.375752380117774 ], [ 675261.806083911214955, 5922155.072098908945918 ], [ 675264.90822767955251, 5922143.877176705747843 ], [ 675267.177680539200082, 5922136.48220051638782 ], [ 675269.022165301488712, 5922118.516725840047002 ], [ 675272.970042922184803, 5922114.948160618543625 ], [ 675277.529531431384385, 5922115.8876549070701 ], [ 675280.556956328800879, 5922118.021116210147738 ], [ 675291.324874622281641, 5922124.386818437837064 ], [ 675284.941073220805265, 5922145.999156748875976 ], [ 675297.609237939817831, 5922161.769809475168586 ], [ 675300.893384105525911, 5922167.351485916413367 ], [ 675313.095908391755074, 5922166.879334407858551 ], [ 675318.708237875718623, 5922169.859061807394028 ], [ 675322.872400894993916, 5922188.786812763661146 ], [ 675325.336918239248917, 5922202.820771525613964 ], [ 675328.121921393088996, 5922204.96195481903851 ], [ 675339.33246057049837, 5922202.153726753778756 ], [ 675344.898184533696622, 5922221.473906276747584 ], [ 675362.939865386346355, 5922225.19740944262594 ], [ 675353.82098345819395, 5922212.27156703080982 ], [ 675349.425000353483483, 5922201.382611537352204 ], [ 675344.241479169693775, 5922188.749570708721876 ], [ 675338.84145847032778, 5922171.934042699635029 ], [ 675333.148961274651811, 5922155.634059859439731 ], [ 675325.979451741906814, 5922136.395405646413565 ], [ 675318.773395587690175, 5922123.158620965667069 ], [ 675309.408584045711905, 5922115.038493823260069 ], [ 675303.79251814680174, 5922111.739294826984406 ], [ 675282.4731777907582, 5922099.551446566358209 ], [ 675269.448257946409285, 5922099.081869734451175 ], [ 675263.715376885957085, 5922103.308847038075328 ], [ 675261.285203989595175, 5922108.626849645748734 ], [ 675256.84216147812549, 5922125.519776120781898 ], [ 675253.761346184066497, 5922139.7107920544222 ], [ 675251.821196887991391, 5922147.161931896582246 ], [ 675247.678240264183842, 5922160.663205206394196 ], [ 675239.803705008001998, 5922175.203081188723445 ], [ 675244.261499698041007, 5922179.994468421675265 ] ] ] ] } },
{ "type": "Feature", "properties": { "id": null }, "geometry": { "type": "MultiPolygon", "coordinates": [ [ [ [ 675278.070935193100013, 5921968.377943372353911 ], [ 675296.420547132147476, 5921976.346837729215622 ], [ 675299.225942545454018, 5921974.59153937920928 ], [ 675299.529791865497828, 5921968.643770348280668 ], [ 675294.237403734005056, 5921966.91362120769918 ], [ 675279.421269256155938, 5921964.955012952908874 ], [ 675278.070935193100013, 5921968.377943372353911 ] ] ] ] } },
{ "type": "Feature", "properties": { "id": null }, "geometry": { "type": "MultiPolygon", "coordinates": [ [ [ [ 675271.983725205645896, 5921992.810309676453471 ], [ 675276.454850512789562, 5921983.25710391625762 ], [ 675267.49537917796988, 5921984.100023886188865 ], [ 675264.966780171263963, 5921989.79723415710032 ], [ 675271.983725205645896, 5921992.810309676453471 ] ] ] ] } },
{ "type": "Feature", "properties": { "id": null }, "geometry": { "type": "MultiPolygon", "coordinates": [ [ [ [ 675080.366144603001885, 5922262.881043002009392 ], [ 675086.973733818391338, 5922266.175141620449722 ], [ 675090.897217961610295, 5922257.89265463873744 ], [ 675087.71971095900517, 5922256.317576383240521 ], [ 675083.996348437154666, 5922254.902838333509862 ], [ 675080.30337705812417, 5922262.7927903868258 ], [ 675080.366144603001885, 5922262.881043002009392 ] ] ] ] } },
{ "type": "Feature", "properties": { "id": null }, "geometry": { "type": "MultiPolygon", "coordinates": [ [ [ [ 675091.560140962712467, 5922256.602556601166725 ], [ 675102.66917766246479, 5922232.871859468519688 ], [ 675099.913789635756984, 5922231.511592324823141 ], [ 675088.630523453350179, 5922255.136394617147744 ], [ 675091.560140962712467, 5922256.602556601166725 ] ] ] ] } },
{ "type": "Feature", "properties": { "id": null }, "geometry": { "type": "MultiPolygon", "coordinates": [ [ [ [ 675052.574466344667599, 5922249.756690610200167 ], [ 675059.743908644421026, 5922253.248503929935396 ], [ 675063.899857128039002, 5922244.994394885376096 ], [ 675056.30903940810822, 5922241.568009737879038 ], [ 675052.574466344667599, 5922249.756690610200167 ] ] ] ] } },
{ "type": "Feature", "properties": { "id": null }, "geometry": { "type": "MultiPolygon", "coordinates": [ [ [ [ 675056.808656889945269, 5922240.55121298506856 ], [ 675060.053399967728183, 5922242.179072501137853 ], [ 675071.643294221255928, 5922218.199240594170988 ], [ 675068.157017762423493, 5922216.330449409782887 ], [ 675056.808656889945269, 5922240.55121298506856 ] ] ] ] } },
{ "type": "Feature", "properties": { "id": null }, "geometry": { "type": "MultiPolygon", "coordinates": [ [ [ [ 675487.792804660159163, 5921570.061773023568094 ], [ 675483.565477271797135, 5921572.754874375648797 ], [ 675477.862370194401592, 5921573.10926500800997 ], [ 675472.974604728980921, 5921572.617669221013784 ], [ 675468.768632409162819, 5921570.572107162326574 ], [ 675463.920476459199563, 5921577.779293037950993 ], [ 675485.622404304333031, 5921585.979520484805107 ], [ 675492.509806974092498, 5921585.363816494122148 ], [ 675487.792804660159163, 5921570.061773023568094 ] ] ] ] } },
{ "type": "Feature", "properties": { "id": null }, "geometry": { "type": "MultiPolygon", "coordinates": [ [ [ [ 675481.66720715444535, 5921629.682558482512832 ], [ 675475.586708645685576, 5921618.420971814543009 ], [ 675475.586708645685576, 5921618.420971814543009 ], [ 675477.799821894848719, 5921588.335447942838073 ], [ 675462.497978219296783, 5921579.59584411047399 ], [ 675461.118143618339673, 5921583.246179341338575 ], [ 675455.001170560833998, 5921597.087308006361127 ], [ 675445.076191030442715, 5921619.699918312951922 ], [ 675479.776473288540728, 5921633.085648937150836 ], [ 675481.66720715444535, 5921629.682558482512832 ] ] ] ] } }
]
}
